{"type":"FeatureCollection","note":"Natural Earth (ne_50m_admin_0_countries) — public domain. مبسّطة ومقتطعة لنافذة الجزيرة العربية.","features":[{"type":"Feature","properties":{"iso":"YEM","ar":"اليمن","focus":false},"geometry":{"type":"MultiPolygon","coordinates":[[[[53.09,16.65],[52.58,16.47],[52.45,16.39],[52.33,16.29],[52.24,16.17],[52.17,15.96],[52.22,15.76],[52.22,15.66],[52.09,15.59],[51.97,15.54],[51.83,15.46],[51.75,15.44],[51.68,15.38],[51.6,15.34],[51.32,15.23],[51.02,15.14],[50.53,15.04],[50.34,14.93],[50.17,14.85],[49.91,14.83],[49.55,14.72],[49.35,14.64],[49.1,14.5],[49.05,14.46],[49.0,14.36],[48.93,14.27],[48.78,14.12],[48.67,14.05],[48.59,14.05],[48.45,14.01],[48.28,14.0],[47.99,14.05],[47.92,14.01],[47.86,13.96],[47.63,13.86],[47.41,13.66],[47.24,13.61],[46.98,13.55],[46.79,13.47],[46.66,13.43],[46.5,13.42],[46.2,13.42],[45.92,13.39],[45.66,13.34],[45.53,13.23],[45.39,13.07],[45.16,13.0],[45.11,12.94],[45.04,12.82],[44.89,12.78],[44.76,12.76],[44.62,12.82],[44.36,12.67],[44.26,12.64],[44.11,12.64],[44.01,12.61],[43.93,12.62],[43.84,12.67],[43.63,12.74],[43.49,12.7],[43.48,12.84],[43.23,13.27],[43.28,13.64],[43.28,13.69],[43.23,13.86],[43.09,14.01],[43.09,14.2],[43.04,14.34],[43.01,14.48],[43.02,14.52],[43.02,14.55],[42.95,14.77],[42.92,14.82],[42.91,14.86],[42.94,14.9],[42.94,14.94],[42.9,15.01],[42.86,15.13],[42.66,15.23],[42.7,15.33],[42.74,15.29],[42.79,15.27],[42.8,15.33],[42.8,15.37],[42.72,15.65],[42.84,16.03],[42.8,16.37],[42.99,16.51],[43.03,16.55],[43.06,16.59],[43.1,16.66],[43.17,16.69],[43.19,16.77],[43.18,16.81],[43.15,16.85],[43.12,16.94],[43.13,17.06],[43.14,17.11],[43.16,17.21],[43.22,17.24],[43.24,17.27],[43.19,17.32],[43.19,17.36],[43.3,17.46],[43.35,17.49],[43.42,17.52],[43.47,17.52],[43.54,17.5],[43.6,17.47],[43.65,17.42],[43.71,17.37],[43.8,17.34],[43.87,17.35],[43.92,17.32],[43.96,17.34],[44.01,17.37],[44.09,17.37],[44.16,17.4],[44.35,17.41],[44.55,17.4],[44.75,17.43],[44.95,17.43],[45.15,17.43],[45.19,17.42],[45.24,17.41],[45.41,17.32],[45.54,17.3],[45.79,17.28],[46.07,17.25],[46.31,17.23],[46.51,17.25],[46.68,17.27],[46.73,17.27],[46.78,17.21],[46.88,17.08],[46.98,16.95],[47.14,16.95],[47.25,16.99],[47.37,17.06],[47.44,17.11],[47.53,17.32],[47.58,17.45],[47.7,17.6],[47.81,17.72],[47.95,17.89],[48.02,17.98],[48.17,18.16],[48.32,18.23],[48.59,18.36],[48.86,18.5],[49.04,18.58],[49.19,18.62],[49.45,18.66],[49.74,18.7],[50.04,18.74],[50.36,18.78],[50.71,18.83],[50.95,18.86],[51.26,18.9],[51.51,18.93],[51.74,18.96],[51.98,19.0],[52.02,18.9],[52.07,18.8],[52.11,18.7],[52.15,18.6],[52.2,18.5],[52.24,18.4],[52.29,18.3],[52.33,18.2],[52.38,18.1],[52.42,18.0],[52.46,17.9],[52.51,17.8],[52.55,17.7],[52.6,17.6],[52.64,17.5],[52.69,17.4],[52.73,17.3],[52.8,17.27],[52.84,17.18],[52.9,17.04],[52.96,16.91],[53.02,16.78],[53.09,16.65]]],[[[42.59,15.3],[42.56,15.28],[42.55,15.32],[42.57,15.41],[42.6,15.43],[42.62,15.37],[42.61,15.33],[42.59,15.3]]],[[[42.76,13.7],[42.69,13.67],[42.73,13.75],[42.78,13.77],[42.79,13.77],[42.76,13.7]]],[[[42.79,13.97],[42.77,13.95],[42.76,13.95],[42.69,14.01],[42.76,14.07],[42.8,14.01],[42.79,13.97]]],[[[53.76,12.64],[53.82,12.62],[53.92,12.66],[54.19,12.66],[54.51,12.55],[54.45,12.52],[54.41,12.48],[54.27,12.45],[54.13,12.36],[53.72,12.32],[53.6,12.34],[53.5,12.43],[53.32,12.53],[53.39,12.6],[53.4,12.63],[53.43,12.66],[53.53,12.72],[53.64,12.71],[53.76,12.64]]]]}},{"type":"Feature","properties":{"iso":"ARE","ar":"الإمارات العربية المتحدة","focus":false},"geometry":{"type":"MultiPolygon","coordinates":[[[[56.3,25.65],[56.36,25.57],[56.37,25.02],[56.39,24.98],[56.35,24.97],[56.31,24.93],[56.27,24.87],[56.2,24.83],[56.15,24.8],[56.11,24.75],[56.06,24.74],[56.01,24.8],[55.97,24.86],[55.98,24.87],[56.01,24.88],[56.02,24.91],[56.0,24.95],[55.96,24.97],[55.92,24.97],[55.87,24.95],[55.82,24.91],[55.8,24.87],[55.79,24.78],[55.8,24.68],[55.8,24.64],[55.78,24.58],[55.77,24.49],[55.79,24.42],[55.8,24.38],[55.81,24.35],[55.76,24.24],[55.8,24.22],[55.93,24.22],[55.97,24.14],[55.99,24.09],[55.99,24.06],[55.89,24.04],[55.78,24.02],[55.7,24.02],[55.55,23.99],[55.47,23.94],[55.49,23.91],[55.52,23.89],[55.53,23.82],[55.51,23.72],[55.47,23.63],[55.41,23.52],[55.35,23.39],[55.27,23.19],[55.2,23.03],[55.19,22.92],[55.19,22.85],[55.19,22.7],[55.12,22.62],[55.1,22.62],[55.02,22.63],[55.0,22.63],[54.92,22.64],[54.8,22.66],[54.65,22.68],[54.47,22.7],[54.27,22.72],[54.05,22.75],[53.83,22.78],[53.61,22.8],[53.39,22.83],[53.19,22.85],[53.01,22.88],[52.86,22.9],[52.74,22.91],[52.67,22.92],[52.64,22.92],[52.56,22.93],[52.51,22.99],[52.45,23.05],[52.4,23.12],[52.34,23.18],[52.29,23.25],[52.23,23.31],[52.18,23.38],[52.12,23.45],[52.07,23.51],[52.01,23.58],[51.96,23.64],[51.9,23.71],[51.85,23.77],[51.79,23.84],[51.74,23.9],[51.68,23.97],[51.63,24.04],[51.59,24.08],[51.57,24.13],[51.57,24.26],[51.57,24.29],[51.61,24.34],[51.62,24.3],[51.66,24.25],[51.73,24.26],[51.77,24.25],[51.79,24.07],[51.84,24.01],[51.91,23.99],[52.12,23.97],[52.25,24.0],[52.51,24.11],[52.65,24.15],[53.03,24.15],[53.33,24.1],[53.8,24.07],[53.89,24.08],[54.15,24.17],[54.3,24.25],[54.4,24.28],[54.46,24.36],[54.5,24.46],[54.53,24.53],[54.58,24.56],[54.62,24.62],[54.66,24.72],[54.75,24.81],[55.1,25.04],[55.3,25.24],[55.32,25.3],[55.43,25.39],[55.52,25.5],[55.94,25.79],[56.03,25.92],[56.07,26.05],[56.08,26.06],[56.12,26.07],[56.17,26.05],[56.17,25.95],[56.15,25.85],[56.15,25.75],[56.14,25.69],[56.18,25.64],[56.25,25.63],[56.28,25.63],[56.3,25.65]],[[56.28,25.24],[56.29,25.28],[56.28,25.3],[56.23,25.3],[56.22,25.27],[56.21,25.21],[56.24,25.21],[56.28,25.24]]],[[[53.33,24.26],[53.26,24.25],[53.19,24.29],[53.33,24.34],[53.37,24.36],[53.41,24.41],[53.45,24.37],[53.41,24.31],[53.38,24.28],[53.33,24.26]]],[[[52.62,24.29],[52.6,24.28],[52.58,24.34],[52.58,24.35],[52.63,24.38],[52.66,24.33],[52.62,24.29]]],[[[53.93,24.18],[53.93,24.14],[53.83,24.15],[53.8,24.14],[53.72,24.15],[53.63,24.17],[53.69,24.21],[53.83,24.26],[53.89,24.22],[53.93,24.18]]],[[[54.47,24.44],[54.46,24.42],[54.43,24.43],[54.36,24.44],[54.33,24.47],[54.38,24.5],[54.4,24.51],[54.43,24.47],[54.47,24.44]]]]}},{"type":"Feature","properties":{"iso":"TKM","ar":"تركمانستان","focus":false},"geometry":{"type":"MultiPolygon","coordinates":[[[[53.11,38.8],[53.1,38.76],[53.05,38.9],[53.02,39.05],[53.05,39.1],[53.09,39.09],[53.06,39.04],[53.11,38.8]]],[[[55.98,41.32],[56.24,41.31],[56.48,41.3],[56.77,41.29],[56.86,41.28],[56.97,41.27],[57.02,41.26],[57.06,41.31],[57.09,41.33],[57.12,41.35],[57.11,41.37],[57.08,41.39],[57.02,41.45],[56.98,41.67],[56.96,41.86],[57.03,41.91],[57.11,41.96],[57.23,42.08],[57.29,42.12],[57.38,42.16],[57.69,42.16],[57.81,42.19],[57.86,42.23],[57.92,42.34],[57.95,42.42],[57.98,42.46],[58.03,42.49],[58.08,42.49],[58.17,42.46],[58.23,42.45],[58.28,42.43],[58.33,42.4],[58.37,42.35],[58.38,42.31],[58.4,42.29],[58.43,42.29],[58.46,42.29],[58.47,42.3],[58.49,42.32],[58.48,42.34],[58.42,42.41],[58.29,42.53],[58.2,42.58],[58.16,42.6],[58.15,42.63],[58.21,42.67],[58.26,42.69],[58.35,42.67],[58.48,42.66],[58.53,42.68],[58.59,42.78],[58.73,42.68],[58.88,42.56],[58.93,42.54],[59.04,42.53],[59.12,42.52],[59.16,42.51],[59.2,42.48],[59.28,42.36],[59.35,42.32],[59.45,42.3],[59.76,42.3],[59.86,42.3],[59.94,42.24],[59.99,42.21],[60.01,42.19],[60.0,42.16],[59.98,42.13],[59.98,42.07],[59.97,42.02],[59.95,42.0],[59.94,41.97],[59.96,41.95],[60.11,41.91],[60.16,41.86],[60.19,41.83],[60.2,41.8],[60.18,41.78],[60.11,41.79],[60.08,41.76],[60.08,41.7],[60.12,41.64],[60.14,41.59],[60.11,41.55],[60.07,41.48],[60.07,41.43],[60.09,41.4],[60.2,41.35],[60.45,41.22],[60.51,41.22],[60.75,41.25],[60.87,41.25],[60.93,41.23],[61.12,41.21],[61.18,41.19],[61.24,41.19],[61.33,41.2],[61.39,41.25],[61.42,41.27],[61.44,41.27],[61.5,41.28],[61.64,41.24],[61.8,41.16],[61.9,41.09],[61.95,41.03],[62.02,40.89],[62.1,40.68],[62.19,40.54],[62.3,40.47],[62.38,40.33],[62.44,40.04],[62.48,39.98],[62.53,39.94],[62.65,39.86],[62.91,39.72],[63.06,39.63],[63.29,39.5],[63.51,39.38],[63.72,39.19],[63.76,39.16],[63.95,39.06],[64.16,38.95],[64.31,38.98],[64.53,38.82],[64.62,38.76],[64.66,38.74],[64.82,38.67],[65.08,38.54],[65.4,38.35],[65.61,38.24],[65.67,38.23],[65.73,38.23],[65.79,38.25],[65.86,38.27],[65.97,38.24],[66.09,38.2],[66.17,38.17],[66.26,38.12],[66.34,38.07],[66.39,38.05],[66.57,38.01],[66.61,37.99],[66.63,37.96],[66.63,37.93],[66.53,37.79],[66.51,37.6],[66.51,37.46],[66.52,37.35],[66.47,37.34],[66.35,37.37],[66.11,37.41],[65.9,37.51],[65.77,37.57],[65.74,37.56],[65.68,37.52],[65.64,37.47],[65.61,37.37],[65.55,37.25],[65.3,37.25],[65.09,37.24],[64.95,37.19],[64.82,37.13],[64.78,37.06],[64.75,36.96],[64.67,36.75],[64.6,36.55],[64.57,36.43],[64.51,36.34],[64.36,36.23],[64.18,36.15],[64.09,36.11],[64.05,36.07],[64.04,36.03],[64.01,36.01],[63.94,36.02],[63.86,36.01],[63.7,35.97],[63.52,35.91],[63.3,35.86],[63.18,35.86],[63.13,35.85],[63.11,35.82],[63.13,35.77],[63.15,35.73],[63.17,35.68],[63.12,35.64],[63.08,35.57],[63.06,35.45],[62.98,35.41],[62.86,35.35],[62.72,35.27],[62.69,35.26],[62.61,35.23],[62.53,35.24],[62.46,35.25],[62.39,35.23],[62.31,35.17],[62.27,35.19],[62.25,35.25],[62.21,35.29],[62.09,35.38],[61.98,35.44],[61.94,35.45],[61.84,35.43],[61.72,35.42],[61.62,35.43],[61.54,35.46],[61.42,35.55],[61.38,35.59],[61.34,35.63],[61.26,35.62],[61.24,35.66],[61.24,35.71],[61.26,35.76],[61.25,35.87],[61.21,35.94],[61.15,35.98],[61.16,36.0],[61.18,36.05],[61.21,36.1],[61.21,36.19],[61.18,36.29],[61.16,36.43],[61.17,36.57],[61.12,36.64],[60.71,36.64],[60.34,36.64],[60.32,36.65],[60.18,36.83],[60.06,36.96],[59.95,37.04],[59.69,37.14],[59.56,37.18],[59.45,37.25],[59.37,37.33],[59.34,37.44],[59.33,37.48],[59.3,37.51],[59.27,37.52],[59.24,37.52],[58.94,37.65],[58.82,37.68],[58.7,37.66],[58.65,37.65],[58.55,37.69],[58.44,37.64],[58.39,37.64],[58.32,37.65],[58.26,37.67],[58.11,37.78],[57.98,37.83],[57.89,37.86],[57.71,37.91],[57.52,37.93],[57.42,37.95],[57.35,37.97],[57.34,37.99],[57.34,38.03],[57.33,38.09],[57.31,38.13],[57.26,38.18],[57.19,38.22],[57.08,38.21],[56.91,38.21],[56.77,38.25],[56.67,38.26],[56.54,38.25],[56.44,38.25],[56.37,38.22],[56.32,38.19],[56.3,38.09],[56.27,38.08],[56.23,38.07],[56.17,38.08],[56.05,38.08],[55.84,38.09],[55.58,38.1],[55.38,38.05],[55.22,37.98],[55.08,37.9],[54.9,37.78],[54.85,37.72],[54.75,37.5],[54.7,37.47],[54.64,37.44],[54.58,37.44],[54.46,37.41],[54.3,37.35],[54.19,37.33],[53.91,37.34],[53.9,37.41],[53.85,37.67],[53.82,37.93],[53.83,38.05],[53.85,38.29],[53.85,38.41],[53.84,38.51],[53.85,38.62],[53.87,38.74],[53.89,38.86],[53.87,38.95],[53.81,39.02],[53.72,39.1],[53.71,39.15],[53.7,39.21],[53.62,39.22],[53.54,39.27],[53.48,39.31],[53.34,39.34],[53.27,39.34],[53.2,39.32],[53.16,39.26],[53.12,39.35],[53.12,39.43],[53.24,39.61],[53.3,39.56],[53.39,39.54],[53.5,39.53],[53.6,39.55],[53.58,39.61],[53.53,39.64],[53.47,39.67],[53.45,39.75],[53.46,39.83],[53.49,39.91],[53.45,39.94],[53.4,39.96],[53.29,39.96],[53.14,39.98],[52.99,39.99],[52.95,39.9],[53.04,39.77],[52.96,39.83],[52.9,39.91],[52.8,40.05],[52.74,40.22],[52.73,40.4],[52.78,40.55],[52.85,40.69],[52.89,40.86],[52.94,41.04],[53.0,40.96],[53.06,40.89],[53.15,40.82],[53.19,40.81],[53.33,40.78],[53.42,40.79],[53.52,40.83],[53.62,40.82],[53.69,40.75],[53.76,40.67],[53.87,40.65],[54.09,40.71],[54.19,40.72],[54.28,40.69],[54.33,40.69],[54.38,40.69],[54.34,40.76],[54.32,40.83],[54.37,40.87],[54.55,40.83],[54.66,40.86],[54.69,40.87],[54.71,40.89],[54.72,40.95],[54.72,41.01],[54.7,41.07],[54.67,41.12],[54.59,41.19],[54.28,41.36],[54.18,41.43],[54.09,41.52],[54.04,41.64],[54.0,41.77],[53.95,41.87],[53.85,42.09],[53.8,42.12],[53.75,42.13],[53.62,42.14],[53.5,42.12],[53.28,42.08],[53.16,42.09],[53.11,42.07],[52.97,41.98],[52.91,41.9],[52.81,41.71],[52.88,41.65],[52.88,41.61],[52.83,41.34],[52.86,41.21],[52.85,41.2],[52.83,41.23],[52.75,41.37],[52.61,41.53],[52.49,41.78],[52.7,41.94],[52.87,42.06],[53.01,42.13],[53.06,42.15],[53.25,42.21],[53.5,42.26],[53.69,42.3],[53.93,42.33],[54.01,42.34],[54.12,42.34],[54.21,42.3],[54.27,42.28],[54.47,42.18],[54.68,42.08],[54.85,41.97],[54.9,41.92],[54.93,41.86],[54.95,41.81],[55.1,41.64],[55.16,41.56],[55.25,41.46],[55.32,41.41],[55.39,41.35],[55.43,41.3],[55.49,41.27],[55.55,41.26],[55.68,41.28],[55.84,41.31],[55.93,41.32],[55.98,41.32]]]]}},{"type":"Feature","properties":{"iso":"TUR","ar":"تركيا","focus":false},"geometry":{"type":"MultiPolygon","coordinates":[[[[41.51,41.52],[41.58,41.5],[41.7,41.47],[41.78,41.44],[41.82,41.43],[41.93,41.5],[42.08,41.49],[42.21,41.49],[42.28,41.48],[42.36,41.45],[42.47,41.44],[42.51,41.47],[42.57,41.56],[42.59,41.57],[42.61,41.58],[42.68,41.59],[42.75,41.58],[42.79,41.56],[42.82,41.49],[42.91,41.47],[43.06,41.35],[43.15,41.31],[43.17,41.29],[43.14,41.26],[43.15,41.24],[43.21,41.2],[43.28,41.19],[43.36,41.19],[43.4,41.18],[43.43,41.16],[43.44,41.13],[43.44,41.11],[43.46,41.06],[43.52,41.0],[43.59,40.97],[43.63,40.93],[43.7,40.79],[43.72,40.72],[43.71,40.65],[43.67,40.57],[43.57,40.48],[43.59,40.44],[43.62,40.39],[43.61,40.36],[43.68,40.24],[43.71,40.17],[43.68,40.15],[43.67,40.13],[43.79,40.07],[43.94,40.02],[44.01,40.01],[44.18,40.04],[44.29,40.04],[44.4,40.0],[44.56,39.89],[44.73,39.75],[44.77,39.7],[44.78,39.68],[44.82,39.65],[44.78,39.65],[44.73,39.68],[44.59,39.77],[44.52,39.73],[44.46,39.67],[44.39,39.42],[44.34,39.4],[44.24,39.4],[44.12,39.41],[44.04,39.39],[44.02,39.38],[44.03,39.35],[44.06,39.31],[44.07,39.26],[44.08,39.22],[44.12,39.18],[44.18,39.14],[44.18,39.11],[44.17,39.06],[44.16,39.02],[44.14,38.99],[44.17,38.93],[44.23,38.86],[44.27,38.84],[44.26,38.7],[44.28,38.64],[44.3,38.56],[44.29,38.42],[44.3,38.39],[44.32,38.37],[44.38,38.37],[44.43,38.36],[44.45,38.33],[44.45,38.32],[44.38,38.25],[44.37,38.21],[44.35,38.15],[44.33,38.11],[44.27,38.04],[44.23,37.97],[44.21,37.91],[44.22,37.88],[44.34,37.87],[44.4,37.83],[44.56,37.74],[44.59,37.71],[44.55,37.66],[44.55,37.64],[44.57,37.61],[44.58,37.56],[44.57,37.51],[44.57,37.44],[44.6,37.42],[44.72,37.36],[44.79,37.29],[44.8,37.27],[44.76,37.22],[44.77,37.16],[44.77,37.14],[44.73,37.17],[44.67,37.17],[44.61,37.18],[44.57,37.16],[44.5,37.11],[44.4,37.06],[44.33,37.01],[44.28,36.98],[44.25,36.98],[44.22,37.01],[44.2,37.05],[44.21,37.2],[44.19,37.25],[44.16,37.28],[44.11,37.3],[44.06,37.31],[44.01,37.31],[43.94,37.27],[43.84,37.22],[43.68,37.23],[43.57,37.24],[43.52,37.24],[43.31,37.31],[43.26,37.32],[43.19,37.34],[43.09,37.37],[42.94,37.32],[42.87,37.33],[42.77,37.37],[42.74,37.36],[42.64,37.25],[42.46,37.13],[42.36,37.11],[42.31,37.23],[42.27,37.28],[42.25,37.28],[42.2,37.3],[42.17,37.29],[42.06,37.21],[41.89,37.16],[41.74,37.13],[41.52,37.09],[41.34,37.07],[41.26,37.07],[41.1,37.09],[40.96,37.11],[40.82,37.11],[40.71,37.1],[40.45,37.01],[40.02,36.83],[39.69,36.74],[39.5,36.7],[39.36,36.68],[39.11,36.68],[38.91,36.69],[38.77,36.69],[38.69,36.72],[38.58,36.79],[38.44,36.86],[38.38,36.88],[38.31,36.89],[38.19,36.9],[37.91,36.79],[37.82,36.77],[37.72,36.74],[37.52,36.68],[37.44,36.64],[37.33,36.65],[37.19,36.66],[37.07,36.65],[36.99,36.7],[36.94,36.76],[36.78,36.79],[36.66,36.8],[36.63,36.78],[36.6,36.7],[36.55,36.51],[36.54,36.46],[36.64,36.26],[36.64,36.23],[36.56,36.22],[36.48,36.22],[36.42,36.2],[36.38,36.17],[36.35,36.0],[36.25,35.97],[36.2,35.94],[36.15,35.83],[36.13,35.83],[35.97,35.91],[35.89,35.92],[35.96,36.0],[35.89,36.16],[35.81,36.31],[35.88,36.41],[36.03,36.52],[36.19,36.66],[36.19,36.74],[36.18,36.81],[36.14,36.85],[36.05,36.91],[35.9,36.85],[35.8,36.78],[35.73,36.76],[35.66,36.72],[35.63,36.65],[35.54,36.6],[35.39,36.58],[35.18,36.63],[34.94,36.73],[34.81,36.8],[34.7,36.82],[34.6,36.78],[34.3,36.6],[34.02,36.34],[33.95,36.3],[33.69,36.18],[33.52,36.14],[33.44,36.15],[33.1,36.1],[32.93,36.1],[32.79,36.04],[32.53,36.1],[32.38,36.18],[32.28,36.27],[32.13,36.45],[32.02,36.54],[31.78,36.61],[31.35,36.8],[31.24,36.82],[30.95,36.85],[30.64,36.87],[30.58,36.8],[30.56,36.53],[30.51,36.45],[30.48,36.31],[30.45,36.27],[30.39,36.24],[30.3,36.29],[30.23,36.31],[30.08,36.25],[29.79,36.17],[29.69,36.16],[29.35,36.26],[29.22,36.32],[29.14,36.4],[29.12,36.52],[29.07,36.59],[29.06,36.64],[29.04,36.69],[28.97,36.72],[28.9,36.67],[28.82,36.68],[28.72,36.7],[28.48,36.8],[28.3,36.81],[28.2,36.69],[28.11,36.65],[28.02,36.63],[28.01,36.67],[28.08,36.75],[27.8,36.74],[27.66,36.67],[27.54,36.68],[27.45,36.71],[27.47,36.75],[27.55,36.76],[27.63,36.79],[27.93,36.81],[28.01,36.83],[28.08,36.92],[28.22,37.0],[28.24,37.03],[28.13,37.03],[27.67,37.01],[27.35,37.02],[27.31,36.98],[27.26,36.98],[27.25,37.08],[27.3,37.13],[27.37,37.12],[27.54,37.16],[27.52,37.25],[27.4,37.31],[27.38,37.34],[27.29,37.35],[27.22,37.39],[27.2,37.49],[27.15,37.6],[27.07,37.66],[27.08,37.69],[27.22,37.73],[27.25,37.88],[27.23,37.98],[27.16,37.99],[26.94,38.06],[26.88,38.05],[26.81,38.14],[26.68,38.2],[26.62,38.18],[26.58,38.15],[26.52,38.16],[26.43,38.21],[26.33,38.24],[26.29,38.28],[26.34,38.37],[26.42,38.37],[26.43,38.44],[26.37,38.56],[26.38,38.62],[26.44,38.64],[26.51,38.63],[26.59,38.56],[26.61,38.49],[26.6,38.42],[26.64,38.35],[26.67,38.34],[26.7,38.41],[26.73,38.42],[26.77,38.39],[26.86,38.37],[27.1,38.42],[27.14,38.45],[26.97,38.45],[26.91,38.48],[26.84,38.56],[26.8,38.63],[26.79,38.66],[26.76,38.71],[26.79,38.74],[26.91,38.78],[27.01,38.89],[26.97,38.92],[26.92,38.93],[26.87,38.92],[26.81,38.96],[26.81,39.01],[26.85,39.06],[26.85,39.12],[26.72,39.26],[26.68,39.29],[26.71,39.34],[26.81,39.42],[26.91,39.52],[26.9,39.55],[26.83,39.56],[26.48,39.52],[26.35,39.48],[26.11,39.47],[26.1,39.52],[26.1,39.57],[26.15,39.66],[26.15,39.87],[26.18,39.99],[26.31,40.02],[26.48,40.2],[26.74,40.4],[27.01,40.4],[27.12,40.45],[27.28,40.46],[27.31,40.41],[27.33,40.38],[27.48,40.32],[27.73,40.33],[27.79,40.35],[27.85,40.38],[27.73,40.48],[27.77,40.51],[27.87,40.51],[27.99,40.49],[27.99,40.47],[27.96,40.44],[27.93,40.38],[27.96,40.37],[28.29,40.4],[28.63,40.38],[28.74,40.39],[29.01,40.39],[29.06,40.42],[28.97,40.47],[28.89,40.48],[28.84,40.5],[28.79,40.53],[28.96,40.63],[29.05,40.65],[29.51,40.71],[29.84,40.74],[29.85,40.76],[29.8,40.76],[29.36,40.81],[29.26,40.85],[29.11,40.94],[29.08,40.96],[29.05,41.01],[29.07,41.1],[29.09,41.18],[29.15,41.22],[29.32,41.23],[29.92,41.15],[30.34,41.2],[30.81,41.08],[31.25,41.11],[31.35,41.16],[31.46,41.32],[32.09,41.59],[32.31,41.73],[32.54,41.81],[32.95,41.89],[33.28,42.0],[33.38,42.02],[34.19,41.96],[34.75,41.96],[35.01,42.06],[35.15,42.03],[35.14,41.99],[35.11,41.96],[35.12,41.89],[35.21,41.79],[35.3,41.73],[35.56,41.63],[35.92,41.71],[35.98,41.7],[36.05,41.68],[36.18,41.43],[36.28,41.34],[36.41,41.27],[36.51,41.26],[36.59,41.33],[36.65,41.35],[36.78,41.36],[36.99,41.28],[37.07,41.18],[37.43,41.11],[37.77,41.08],[37.91,41.0],[38.38,40.92],[38.56,40.94],[38.85,41.02],[39.43,41.11],[39.81,40.98],[39.91,40.97],[40.0,40.98],[40.13,40.94],[40.27,40.96],[40.69,41.11],[40.82,41.19],[40.96,41.21],[41.08,41.26],[41.41,41.42],[41.51,41.52]]]]}},{"type":"Feature","properties":{"iso":"SYR","ar":"سوريا","focus":false},"geometry":{"type":"MultiPolygon","coordinates":[[[[35.89,35.92],[35.97,35.91],[36.13,35.83],[36.15,35.83],[36.2,35.94],[36.25,35.97],[36.35,36.0],[36.38,36.17],[36.42,36.2],[36.48,36.22],[36.56,36.22],[36.64,36.23],[36.64,36.26],[36.54,36.46],[36.55,36.51],[36.6,36.7],[36.63,36.78],[36.66,36.8],[36.78,36.79],[36.94,36.76],[36.99,36.7],[37.07,36.65],[37.19,36.66],[37.33,36.65],[37.44,36.64],[37.52,36.68],[37.72,36.74],[37.82,36.77],[37.91,36.79],[38.19,36.9],[38.31,36.89],[38.38,36.88],[38.44,36.86],[38.58,36.79],[38.69,36.72],[38.77,36.69],[38.91,36.69],[39.11,36.68],[39.36,36.68],[39.5,36.7],[39.69,36.74],[40.02,36.83],[40.45,37.01],[40.71,37.1],[40.82,37.11],[40.96,37.11],[41.1,37.09],[41.26,37.07],[41.34,37.07],[41.52,37.09],[41.74,37.13],[41.89,37.16],[42.06,37.21],[42.17,37.29],[42.2,37.3],[42.25,37.28],[42.27,37.28],[42.31,37.23],[42.36,37.11],[42.36,37.1],[42.35,37.06],[42.24,36.96],[42.08,36.83],[41.97,36.74],[41.79,36.6],[41.65,36.57],[41.42,36.51],[41.35,36.46],[41.3,36.38],[41.26,36.27],[41.25,36.2],[41.25,36.07],[41.3,35.94],[41.35,35.81],[41.36,35.72],[41.35,35.64],[41.3,35.55],[41.25,35.43],[41.22,35.29],[41.2,35.03],[41.2,34.81],[41.19,34.77],[41.1,34.61],[40.99,34.43],[40.94,34.39],[40.69,34.33],[40.42,34.2],[40.12,34.05],[39.85,33.91],[39.56,33.77],[39.27,33.62],[39.06,33.51],[38.77,33.37],[38.52,33.24],[38.25,33.1],[38.06,32.99],[37.75,32.83],[37.58,32.73],[37.32,32.59],[37.09,32.47],[36.82,32.32],[36.48,32.36],[36.37,32.39],[36.28,32.46],[36.22,32.5],[36.06,32.53],[35.96,32.67],[35.89,32.71],[35.79,32.73],[35.83,32.82],[35.84,32.88],[35.89,32.94],[35.86,32.99],[35.85,33.08],[35.82,33.11],[35.82,33.13],[35.83,33.16],[35.83,33.2],[35.81,33.21],[35.8,33.26],[35.79,33.29],[35.79,33.33],[35.82,33.36],[35.84,33.42],[35.87,33.43],[35.91,33.47],[35.93,33.5],[35.97,33.53],[36.02,33.56],[36.03,33.59],[36.03,33.6],[35.97,33.62],[35.94,33.67],[35.97,33.73],[35.99,33.75],[36.02,33.78],[36.09,33.83],[36.15,33.84],[36.2,33.84],[36.28,33.84],[36.35,33.83],[36.37,33.84],[36.36,33.86],[36.28,33.89],[36.28,33.93],[36.3,33.96],[36.35,34.01],[36.42,34.05],[36.46,34.06],[36.54,34.13],[36.58,34.22],[36.5,34.43],[36.46,34.47],[36.38,34.5],[36.33,34.5],[36.33,34.51],[36.39,34.57],[36.43,34.61],[36.38,34.66],[36.3,34.68],[36.26,34.63],[36.15,34.63],[35.98,34.63],[35.9,34.85],[35.89,34.95],[35.89,35.06],[35.94,35.22],[35.92,35.3],[35.92,35.35],[35.9,35.42],[35.76,35.57],[35.84,35.85],[35.89,35.92]]]]}},{"type":"Feature","properties":{"iso":"SDN","ar":"السودان","focus":false},"geometry":{"type":"MultiPolygon","coordinates":[[[[34.08,9.46],[33.89,9.46],[33.88,9.47],[33.88,9.48],[33.87,9.51],[33.87,9.55],[33.87,9.63],[33.89,9.72],[33.96,9.85],[33.96,9.86],[33.96,9.87],[33.96,9.89],[33.95,9.91],[33.95,9.94],[33.96,10.01],[33.96,10.03],[33.96,10.05],[33.95,10.07],[33.91,10.18],[33.89,10.2],[33.46,10.55],[33.38,10.65],[33.37,10.65],[33.36,10.66],[33.14,10.74],[33.13,10.75],[33.13,10.76],[33.14,10.77],[33.16,10.82],[33.17,10.83],[33.17,10.85],[33.07,11.59],[33.07,11.61],[33.08,11.62],[33.09,11.64],[33.11,11.65],[33.12,11.68],[33.12,11.69],[33.14,11.83],[33.14,11.94],[33.19,12.14],[33.2,12.22],[32.72,12.22],[32.72,12.21],[32.72,12.2],[32.72,12.19],[32.72,12.16],[32.72,12.15],[32.72,12.14],[32.72,12.09],[32.74,12.06],[32.74,12.05],[32.74,12.03],[32.74,12.01],[32.07,12.01],[32.34,11.72],[32.34,11.71],[32.34,11.69],[32.34,11.68],[32.35,11.58],[32.34,11.42],[32.34,11.31],[32.35,11.25],[32.43,11.11],[32.42,11.09],[32.4,11.06],[31.93,10.66],[31.92,10.64],[31.85,10.48],[31.79,10.38],[31.76,10.36],[31.65,10.22],[31.22,9.8],[31.15,9.77],[30.94,9.76],[30.83,9.76],[30.81,9.75],[30.79,9.75],[30.78,9.73],[30.77,9.73],[30.76,9.73],[30.74,9.74],[30.47,9.98],[30.0,10.28],[29.96,10.25],[29.69,10.12],[29.64,10.09],[29.61,10.07],[29.6,9.92],[29.56,9.85],[29.47,9.77],[29.24,9.72],[29.12,9.67],[29.0,9.61],[28.98,9.59],[28.93,9.55],[28.84,9.46],[28.83,9.39],[28.84,9.33],[28.05,9.33],[28.0,9.38],[27.89,9.6],[27.88,9.6],[27.8,9.59],[27.07,9.61],[26.97,9.59],[26.76,9.5],[26.66,9.48],[26.55,9.53],[26.17,9.97],[26.09,10.02],[26.06,10.05],[26.0,10.12],[25.92,10.17],[25.89,10.2],[25.88,10.25],[25.89,10.35],[25.86,10.41],[25.8,10.42],[25.29,10.32],[25.21,10.33],[25.1,10.31],[25.07,10.29],[25.02,10.24],[25.01,10.18],[25.02,10.12],[25.0,10.06],[24.96,9.99],[24.82,9.84],[24.79,9.77],[24.79,9.61],[24.78,9.53],[24.76,9.49],[24.7,9.43],[24.67,9.39],[24.66,9.34],[24.66,9.23],[24.65,9.18],[24.57,9.05],[24.55,9.01],[24.54,8.91],[24.53,8.89],[24.3,8.81],[24.21,8.77],[24.16,8.7],[24.15,8.67],[24.05,8.69],[23.92,8.71],[23.68,8.73],[23.58,8.77],[23.54,8.82],[23.55,8.94],[23.53,8.97],[23.49,8.99],[23.46,9.05],[23.47,9.11],[23.6,9.26],[23.62,9.34],[23.64,9.61],[23.66,9.71],[23.65,9.82],[23.55,10.03],[23.46,10.17],[23.31,10.39],[23.26,10.46],[22.96,10.75],[22.93,10.8],[22.86,10.92],[22.89,11.03],[22.94,11.19],[22.94,11.27],[22.92,11.34],[22.85,11.4],[22.78,11.41],[22.75,11.44],[22.7,11.48],[22.64,11.52],[22.59,11.58],[22.56,11.67],[22.58,11.99],[22.56,12.03],[22.49,12.04],[22.47,12.07],[22.48,12.13],[22.44,12.31],[22.39,12.46],[22.41,12.55],[22.35,12.66],[22.23,12.71],[22.12,12.69],[22.0,12.67],[21.93,12.68],[21.88,12.7],[21.84,12.74],[21.83,12.79],[21.84,12.86],[21.91,13.0],[21.99,13.11],[22.16,13.22],[22.2,13.27],[22.23,13.33],[22.23,13.4],[22.22,13.47],[22.2,13.54],[22.15,13.63],[22.11,13.73],[22.11,13.8],[22.13,13.85],[22.17,13.91],[22.26,13.98],[22.28,13.99],[22.34,14.03],[22.39,14.06],[22.51,14.13],[22.54,14.16],[22.53,14.2],[22.5,14.24],[22.45,14.28],[22.44,14.34],[22.43,14.44],[22.4,14.5],[22.38,14.55],[22.42,14.59],[22.47,14.63],[22.53,14.66],[22.63,14.69],[22.67,14.72],[22.68,14.79],[22.68,14.85],[22.71,14.9],[22.76,15.0],[22.8,15.04],[22.87,15.1],[22.93,15.16],[22.96,15.24],[22.97,15.31],[22.93,15.53],[23.01,15.63],[23.11,15.7],[23.24,15.7],[23.46,15.71],[23.6,15.75],[23.71,15.74],[23.95,15.7],[23.97,15.71],[23.97,15.72],[23.98,15.78],[23.98,15.93],[23.98,16.37],[23.98,16.82],[23.98,17.27],[23.98,17.71],[23.98,18.16],[23.98,18.6],[23.98,19.05],[23.98,19.5],[23.98,19.62],[23.98,19.75],[23.98,19.87],[23.98,20.0],[24.23,20.0],[24.47,20.0],[24.72,20.0],[24.97,20.0],[24.98,20.0],[24.98,20.5],[24.98,21.0],[24.98,21.5],[24.98,22.0],[25.36,22.0],[25.74,22.0],[26.13,22.0],[26.51,22.0],[26.89,22.0],[27.27,22.0],[27.65,22.0],[28.04,22.0],[28.42,22.0],[28.8,22.0],[29.18,22.0],[29.56,22.0],[29.95,22.0],[30.33,22.0],[30.71,21.99],[31.09,21.99],[31.21,21.99],[31.26,22.0],[31.36,22.19],[31.4,22.2],[31.46,22.19],[31.49,22.15],[31.47,22.08],[31.43,22.0],[31.62,22.0],[31.95,22.0],[32.28,22.0],[32.61,22.0],[32.93,22.0],[33.26,22.0],[33.59,22.0],[33.92,22.0],[34.25,22.0],[34.57,22.0],[34.9,22.0],[35.23,22.0],[35.56,22.0],[35.89,22.0],[36.22,22.0],[36.54,22.0],[36.87,22.0],[36.88,21.77],[36.93,21.59],[37.08,21.33],[37.21,21.19],[37.26,21.11],[37.26,21.07],[37.26,21.04],[37.22,21.08],[37.15,21.1],[37.14,20.98],[37.16,20.89],[37.17,20.73],[37.23,20.56],[37.19,20.39],[37.19,20.12],[37.26,19.79],[37.25,19.58],[37.36,19.09],[37.47,18.82],[37.53,18.75],[37.6,18.72],[37.73,18.69],[37.92,18.56],[38.07,18.41],[38.13,18.33],[38.2,18.25],[38.25,18.26],[38.28,18.29],[38.33,18.22],[38.57,18.07],[38.61,18.01],[38.52,17.94],[38.42,17.82],[38.4,17.78],[38.39,17.75],[38.37,17.72],[38.35,17.68],[38.29,17.64],[38.27,17.62],[38.25,17.58],[38.22,17.56],[38.18,17.56],[38.15,17.55],[38.1,17.53],[38.03,17.54],[37.95,17.52],[37.92,17.49],[37.86,17.47],[37.8,17.47],[37.78,17.46],[37.73,17.42],[37.66,17.37],[37.58,17.34],[37.55,17.32],[37.51,17.29],[37.45,17.11],[37.41,17.06],[37.34,17.06],[37.25,17.06],[37.17,17.04],[37.06,17.06],[37.01,17.06],[37.0,17.02],[36.98,16.87],[36.98,16.8],[36.94,16.72],[36.89,16.62],[36.91,16.46],[36.91,16.3],[36.83,16.05],[36.81,15.99],[36.72,15.8],[36.68,15.73],[36.57,15.36],[36.52,15.25],[36.43,15.13],[36.45,14.94],[36.47,14.74],[36.49,14.54],[36.52,14.26],[36.44,13.99],[36.45,13.84],[36.39,13.63],[36.35,13.53],[36.31,13.47],[36.27,13.41],[36.21,13.27],[36.16,13.09],[36.14,12.91],[36.14,12.81],[36.13,12.76],[36.11,12.73],[35.99,12.71],[35.82,12.68],[35.73,12.66],[35.67,12.62],[35.6,12.54],[35.45,12.3],[35.37,12.16],[35.25,11.96],[35.11,11.82],[35.08,11.75],[35.06,11.62],[35.01,11.42],[34.96,11.28],[34.97,11.16],[34.92,10.96],[34.93,10.86],[34.88,10.81],[34.82,10.76],[34.77,10.75],[34.67,10.8],[34.6,10.86],[34.57,10.88],[34.51,10.84],[34.43,10.79],[34.34,10.66],[34.28,10.53],[34.31,10.25],[34.31,10.19],[34.29,10.12],[34.19,9.92],[34.16,9.85],[34.12,9.73],[34.08,9.51],[34.08,9.46]]]]}},{"type":"Feature","properties":{"iso":"SOM","ar":"الصومال","focus":false},"geometry":{"type":"MultiPolygon","coordinates":[[[[41.53,-1.7],[41.54,-1.61],[41.52,-1.57],[41.43,-1.45],[41.25,-1.22],[41.12,-1.05],[40.98,-0.87],[40.98,-0.73],[40.98,-0.31],[40.97,0.54],[40.97,1.38],[40.97,2.22],[40.97,2.64],[40.96,2.81],[40.98,2.84],[41.13,3.0],[41.34,3.2],[41.61,3.59],[41.76,3.8],[41.88,3.98],[41.92,4.03],[42.02,4.14],[42.23,4.2],[42.36,4.21],[42.79,4.29],[42.86,4.32],[42.89,4.36],[42.93,4.45],[43.02,4.56],[43.13,4.64],[43.33,4.75],[43.54,4.84],[43.58,4.85],[43.83,4.91],[43.89,4.93],[43.99,4.95],[44.03,4.95],[44.37,4.93],[44.64,4.92],[44.91,4.9],[44.94,4.91],[45.13,5.12],[45.44,5.46],[45.63,5.67],[45.93,6.0],[46.17,6.23],[46.42,6.5],[46.67,6.74],[46.97,7.03],[47.16,7.21],[47.45,7.49],[47.73,7.76],[47.98,8.0],[48.13,8.22],[48.27,8.44],[48.43,8.68],[48.62,8.96],[48.79,9.23],[48.94,9.45],[48.94,9.56],[48.94,9.81],[48.94,9.97],[48.94,10.43],[48.94,10.71],[48.94,10.98],[48.94,11.26],[49.06,11.27],[49.39,11.34],[49.64,11.45],[50.11,11.53],[50.47,11.73],[50.53,11.82],[50.64,11.94],[50.79,11.98],[51.19,11.84],[51.25,11.83],[51.23,11.75],[51.22,11.66],[51.14,11.51],[51.08,11.34],[51.12,11.08],[51.14,10.66],[51.13,10.6],[51.1,10.54],[51.09,10.49],[51.05,10.47],[51.03,10.44],[51.06,10.43],[51.19,10.48],[51.19,10.53],[51.19,10.55],[51.3,10.5],[51.37,10.48],[51.39,10.42],[51.38,10.39],[51.27,10.4],[51.21,10.43],[51.04,10.39],[50.93,10.34],[50.9,10.25],[50.87,9.92],[50.83,9.71],[50.83,9.43],[50.69,9.24],[50.64,9.11],[50.43,8.85],[50.32,8.62],[50.29,8.51],[50.1,8.2],[49.85,7.96],[49.76,7.66],[49.67,7.47],[49.57,7.3],[49.35,6.99],[49.23,6.78],[49.09,6.41],[49.05,6.17],[48.65,5.49],[48.23,4.95],[47.98,4.5],[47.51,3.97],[46.88,3.29],[46.05,2.48],[45.83,2.31],[44.92,1.81],[44.33,1.39],[44.03,1.11],[43.72,0.86],[43.47,0.62],[42.71,-0.18],[42.63,-0.25],[42.56,-0.32],[42.47,-0.46],[42.4,-0.51],[42.22,-0.74],[42.11,-0.86],[41.98,-0.97],[41.93,-1.06],[41.89,-1.15],[41.85,-1.2],[41.73,-1.43],[41.63,-1.58],[41.53,-1.7]]]]}},{"type":"Feature","properties":{"iso":"SAU","ar":"السعودية","focus":true},"geometry":{"type":"MultiPolygon","coordinates":[[[[36.9,25.38],[36.88,25.38],[36.81,25.45],[36.76,25.5],[36.72,25.53],[36.53,25.6],[36.5,25.65],[36.53,25.69],[36.55,25.65],[36.59,25.62],[36.75,25.56],[36.92,25.43],[36.95,25.41],[36.9,25.38]]],[[[41.99,16.72],[42.07,16.71],[42.03,16.74],[42.03,16.76],[42.06,16.8],[42.17,16.71],[42.17,16.6],[42.16,16.57],[42.13,16.59],[42.11,16.62],[42.1,16.64],[42.07,16.67],[41.96,16.65],[41.9,16.68],[41.8,16.78],[41.78,16.85],[41.82,16.86],[41.86,16.89],[41.88,16.95],[41.86,17.0],[41.92,16.99],[41.95,16.94],[41.95,16.81],[41.96,16.78],[41.95,16.75],[41.99,16.72]]],[[[51.98,19.0],[51.74,18.96],[51.51,18.93],[51.26,18.9],[50.95,18.86],[50.71,18.83],[50.36,18.78],[50.04,18.74],[49.74,18.7],[49.45,18.66],[49.19,18.62],[49.04,18.58],[48.86,18.5],[48.59,18.36],[48.32,18.23],[48.17,18.16],[48.02,17.98],[47.95,17.89],[47.81,17.72],[47.7,17.6],[47.58,17.45],[47.53,17.32],[47.44,17.11],[47.37,17.06],[47.25,16.99],[47.14,16.95],[46.98,16.95],[46.88,17.08],[46.78,17.21],[46.73,17.27],[46.68,17.27],[46.51,17.25],[46.31,17.23],[46.07,17.25],[45.79,17.28],[45.54,17.3],[45.41,17.32],[45.24,17.41],[45.19,17.42],[45.15,17.43],[44.95,17.43],[44.75,17.43],[44.55,17.4],[44.35,17.41],[44.16,17.4],[44.09,17.37],[44.01,17.37],[43.96,17.34],[43.92,17.32],[43.87,17.35],[43.8,17.34],[43.71,17.37],[43.65,17.42],[43.6,17.47],[43.54,17.5],[43.47,17.52],[43.42,17.52],[43.35,17.49],[43.3,17.46],[43.19,17.36],[43.19,17.32],[43.24,17.27],[43.22,17.24],[43.16,17.21],[43.14,17.11],[43.13,17.06],[43.12,16.94],[43.15,16.85],[43.18,16.81],[43.19,16.77],[43.17,16.69],[43.1,16.66],[43.06,16.59],[43.03,16.55],[42.99,16.51],[42.8,16.37],[42.79,16.45],[42.73,16.57],[42.73,16.65],[42.7,16.74],[42.65,16.8],[42.55,16.87],[42.54,16.96],[42.48,17.05],[42.38,17.12],[42.33,17.26],[42.29,17.43],[42.05,17.67],[41.75,17.89],[41.66,18.01],[41.51,18.26],[41.43,18.45],[41.23,18.68],[41.22,18.77],[41.19,18.87],[41.14,18.99],[41.12,19.08],[40.91,19.49],[40.85,19.56],[40.79,19.65],[40.78,19.72],[40.76,19.76],[40.62,19.82],[40.48,19.99],[40.08,20.27],[39.88,20.29],[39.73,20.39],[39.61,20.52],[39.49,20.74],[39.28,20.97],[39.09,21.31],[39.15,21.43],[39.15,21.52],[39.09,21.66],[39.03,21.78],[38.99,21.88],[39.02,22.03],[39.03,22.2],[39.07,22.29],[39.1,22.39],[39.06,22.59],[39.0,22.7],[39.01,22.77],[38.94,22.8],[38.88,22.88],[38.94,22.88],[38.84,22.99],[38.8,23.05],[38.76,23.19],[38.71,23.31],[38.54,23.56],[38.46,23.71],[38.29,23.91],[38.1,24.06],[37.98,24.12],[37.92,24.19],[37.82,24.19],[37.71,24.27],[37.64,24.28],[37.54,24.29],[37.43,24.46],[37.34,24.62],[37.18,24.82],[37.22,24.87],[37.27,24.96],[37.24,25.07],[37.22,25.15],[37.15,25.29],[36.92,25.64],[36.86,25.69],[36.76,25.75],[36.7,25.9],[36.68,26.04],[36.52,26.1],[36.25,26.59],[36.09,26.77],[36.03,26.88],[35.85,27.07],[35.76,27.26],[35.58,27.43],[35.42,27.73],[35.18,28.03],[35.08,28.09],[34.83,28.11],[34.72,28.13],[34.62,28.06],[34.62,28.15],[34.68,28.26],[34.78,28.51],[34.8,28.72],[34.95,29.35],[35.16,29.32],[35.34,29.29],[35.6,29.25],[35.86,29.21],[36.02,29.19],[36.07,29.2],[36.28,29.36],[36.48,29.5],[36.59,29.67],[36.7,29.83],[36.76,29.87],[36.93,29.9],[37.2,29.95],[37.47,30.0],[37.49,30.01],[37.55,30.14],[37.63,30.31],[37.65,30.33],[37.67,30.35],[37.86,30.44],[37.98,30.5],[37.81,30.67],[37.66,30.83],[37.48,31.01],[37.33,31.15],[37.11,31.36],[36.96,31.49],[37.22,31.56],[37.49,31.63],[37.77,31.7],[38.11,31.78],[38.38,31.85],[38.77,31.95],[38.96,31.99],[39.0,32.01],[39.15,32.12],[39.37,32.09],[39.7,32.04],[40.03,32.0],[40.37,31.94],[40.48,31.89],[40.81,31.73],[41.02,31.62],[41.27,31.49],[41.59,31.33],[41.8,31.22],[42.07,31.08],[42.29,30.92],[42.56,30.72],[42.86,30.5],[43.1,30.32],[43.44,30.08],[43.77,29.85],[44.1,29.62],[44.36,29.44],[44.69,29.2],[44.72,29.19],[45.05,29.17],[45.5,29.13],[45.95,29.1],[46.36,29.06],[46.53,29.1],[46.72,29.07],[46.98,29.05],[47.14,29.03],[47.43,28.99],[47.52,28.84],[47.55,28.73],[47.58,28.63],[47.67,28.53],[47.87,28.54],[48.05,28.54],[48.27,28.54],[48.44,28.54],[48.5,28.45],[48.52,28.36],[48.63,28.13],[48.77,27.96],[48.81,27.9],[48.83,27.8],[48.81,27.77],[48.8,27.72],[48.91,27.63],[49.09,27.55],[49.16,27.53],[49.24,27.49],[49.18,27.44],[49.28,27.31],[49.41,27.18],[49.54,27.15],[49.72,26.96],[49.99,26.83],[50.15,26.66],[50.13,26.66],[50.09,26.68],[50.03,26.7],[50.01,26.68],[50.01,26.61],[50.03,26.53],[50.11,26.46],[50.18,26.4],[50.21,26.31],[50.16,26.1],[50.14,26.1],[50.1,26.12],[50.05,26.12],[50.03,26.11],[50.08,25.96],[50.13,25.85],[50.19,25.76],[50.24,25.62],[50.28,25.57],[50.46,25.42],[50.51,25.31],[50.56,25.09],[50.67,24.96],[50.73,24.87],[50.8,24.79],[50.86,24.68],[50.93,24.6],[50.97,24.57],[51.02,24.57],[51.09,24.56],[51.18,24.59],[51.27,24.61],[51.34,24.56],[51.41,24.57],[51.42,24.53],[51.37,24.48],[51.31,24.34],[51.4,24.32],[51.48,24.31],[51.53,24.29],[51.57,24.29],[51.57,24.26],[51.57,24.13],[51.59,24.08],[51.63,24.04],[51.68,23.97],[51.74,23.9],[51.79,23.84],[51.85,23.77],[51.9,23.71],[51.96,23.64],[52.01,23.58],[52.07,23.51],[52.12,23.45],[52.18,23.38],[52.23,23.31],[52.29,23.25],[52.34,23.18],[52.4,23.12],[52.45,23.05],[52.51,22.99],[52.56,22.93],[52.64,22.92],[52.67,22.92],[52.74,22.91],[52.86,22.9],[53.01,22.88],[53.19,22.85],[53.39,22.83],[53.61,22.8],[53.83,22.78],[54.05,22.75],[54.27,22.72],[54.47,22.7],[54.65,22.68],[54.8,22.66],[54.92,22.64],[55.0,22.63],[55.02,22.63],[55.1,22.62],[55.12,22.62],[55.19,22.7],[55.26,22.59],[55.32,22.5],[55.4,22.37],[55.49,22.23],[55.58,22.1],[55.64,22.0],[55.61,21.9],[55.57,21.79],[55.53,21.68],[55.5,21.57],[55.46,21.46],[55.42,21.35],[55.39,21.24],[55.35,21.13],[55.31,21.01],[55.28,20.9],[55.24,20.79],[55.2,20.68],[55.17,20.57],[55.13,20.46],[55.09,20.35],[55.06,20.24],[55.02,20.13],[54.98,20.0],[54.87,19.96],[54.7,19.9],[54.53,19.85],[54.35,19.79],[54.18,19.73],[54.01,19.67],[53.84,19.62],[53.67,19.56],[53.49,19.5],[53.32,19.44],[53.15,19.39],[52.98,19.33],[52.81,19.27],[52.63,19.22],[52.46,19.16],[52.29,19.1],[52.12,19.04],[51.98,19.0]]],[[[36.6,25.71],[36.59,25.7],[36.54,25.73],[36.55,25.81],[36.58,25.86],[36.58,25.8],[36.6,25.73],[36.6,25.71]]]]}},{"type":"Feature","properties":{"iso":"QAT","ar":"قطر","focus":false},"geometry":{"type":"MultiPolygon","coordinates":[[[[51.27,24.61],[51.18,24.59],[51.09,24.56],[51.02,24.57],[50.97,24.57],[50.93,24.6],[50.86,24.68],[50.8,24.79],[50.84,24.85],[50.85,24.89],[50.78,25.18],[50.75,25.4],[50.76,25.44],[50.8,25.5],[50.87,25.61],[50.9,25.72],[51.0,25.98],[51.11,26.08],[51.26,26.15],[51.39,26.01],[51.54,25.9],[51.57,25.78],[51.53,25.68],[51.49,25.52],[51.51,25.45],[51.52,25.39],[51.56,25.28],[51.6,25.15],[51.61,25.05],[51.59,24.96],[51.53,24.89],[51.43,24.67],[51.4,24.65],[51.27,24.61]]]]}},{"type":"Feature","properties":{"iso":"PAK","ar":"باكستان","focus":false},"geometry":{"type":"MultiPolygon","coordinates":[[[[76.77,35.66],[76.81,35.57],[76.88,35.44],[76.93,35.35],[76.98,35.25],[77.0,35.2],[77.05,35.11],[77.03,35.06],[77.0,34.99],[76.89,34.94],[76.78,34.9],[76.76,34.88],[76.75,34.85],[76.7,34.79],[76.59,34.74],[76.51,34.74],[76.46,34.76],[76.17,34.67],[76.04,34.67],[75.94,34.61],[75.86,34.56],[75.71,34.5],[75.61,34.5],[75.45,34.54],[75.26,34.6],[75.19,34.64],[75.12,34.64],[74.95,34.65],[74.79,34.68],[74.59,34.72],[74.5,34.73],[74.3,34.77],[74.17,34.72],[74.06,34.68],[73.96,34.65],[73.88,34.53],[73.85,34.49],[73.81,34.42],[73.79,34.38],[73.81,34.33],[73.92,34.29],[73.97,34.24],[73.98,34.19],[73.94,34.14],[73.9,34.11],[73.9,34.08],[73.92,34.04],[73.95,34.02],[74.11,34.0],[74.21,34.0],[74.25,33.99],[74.25,33.95],[74.22,33.89],[74.08,33.84],[74.0,33.79],[73.98,33.72],[73.98,33.67],[74.0,33.63],[74.07,33.59],[74.13,33.55],[74.15,33.51],[74.14,33.46],[74.12,33.38],[74.05,33.3],[73.99,33.24],[73.99,33.22],[74.0,33.19],[74.05,33.14],[74.13,33.08],[74.22,33.02],[74.28,33.01],[74.3,32.99],[74.32,32.93],[74.33,32.86],[74.31,32.81],[74.35,32.77],[74.48,32.77],[74.59,32.75],[74.63,32.77],[74.66,32.76],[74.64,32.61],[74.66,32.52],[74.69,32.49],[74.79,32.46],[74.99,32.46],[75.1,32.42],[75.23,32.37],[75.3,32.32],[75.33,32.28],[75.32,32.22],[75.25,32.14],[75.14,32.1],[75.07,32.09],[74.74,31.95],[74.64,31.89],[74.56,31.82],[74.53,31.77],[74.51,31.71],[74.58,31.52],[74.59,31.47],[74.53,31.26],[74.52,31.19],[74.54,31.13],[74.61,31.11],[74.63,31.07],[74.63,31.03],[74.51,30.96],[74.38,30.89],[74.34,30.89],[74.22,30.77],[74.01,30.52],[73.9,30.44],[73.89,30.39],[73.88,30.35],[73.92,30.28],[73.93,30.22],[73.89,30.16],[73.81,30.09],[73.66,30.03],[73.47,29.97],[73.38,29.93],[73.32,29.77],[73.26,29.61],[73.23,29.55],[73.13,29.36],[72.95,29.09],[72.9,29.03],[72.63,28.9],[72.34,28.75],[72.29,28.7],[72.23,28.57],[72.18,28.42],[72.13,28.35],[71.95,28.18],[71.89,28.05],[71.87,27.96],[71.72,27.92],[71.54,27.87],[71.29,27.86],[71.18,27.83],[70.87,27.71],[70.8,27.71],[70.74,27.73],[70.69,27.77],[70.65,27.84],[70.63,27.94],[70.57,27.98],[70.49,28.02],[70.4,28.03],[70.32,27.98],[70.24,27.93],[70.19,27.89],[70.14,27.85],[70.05,27.69],[69.9,27.47],[69.72,27.31],[69.66,27.26],[69.62,27.23],[69.57,27.17],[69.54,27.12],[69.49,26.95],[69.47,26.8],[69.48,26.77],[69.51,26.74],[69.6,26.7],[69.74,26.63],[69.91,26.59],[70.06,26.58],[70.11,26.55],[70.15,26.51],[70.16,26.47],[70.15,26.35],[70.13,26.21],[70.08,26.07],[70.08,25.99],[70.1,25.91],[70.26,25.71],[70.33,25.69],[70.45,25.68],[70.51,25.69],[70.57,25.71],[70.61,25.69],[70.65,25.67],[70.66,25.63],[70.65,25.42],[70.7,25.33],[70.8,25.21],[70.88,25.06],[70.95,24.89],[71.02,24.76],[71.05,24.69],[71.0,24.65],[70.98,24.62],[70.97,24.57],[70.98,24.52],[70.97,24.49],[71.01,24.44],[71.05,24.43],[71.04,24.4],[70.98,24.36],[70.93,24.36],[70.89,24.34],[70.81,24.26],[70.77,24.25],[70.72,24.24],[70.66,24.25],[70.58,24.28],[70.56,24.33],[70.57,24.39],[70.55,24.42],[70.49,24.41],[70.29,24.36],[70.1,24.29],[70.07,24.24],[70.02,24.19],[69.93,24.17],[69.81,24.17],[69.72,24.17],[69.63,24.23],[69.56,24.27],[69.44,24.28],[69.24,24.27],[69.12,24.27],[69.05,24.29],[68.98,24.27],[68.9,24.29],[68.86,24.27],[68.83,24.26],[68.8,24.31],[68.78,24.31],[68.76,24.31],[68.74,24.29],[68.73,24.27],[68.72,23.96],[68.59,23.97],[68.49,23.97],[68.38,23.95],[68.28,23.93],[68.23,23.9],[68.17,23.86],[68.15,23.8],[68.12,23.75],[68.07,23.82],[68.04,23.85],[68.0,23.83],[67.95,23.83],[67.86,23.9],[67.82,23.83],[67.67,23.81],[67.65,23.87],[67.65,23.92],[67.56,23.88],[67.5,23.94],[67.48,24.02],[67.45,24.04],[67.43,24.06],[67.37,24.09],[67.31,24.17],[67.3,24.26],[67.29,24.37],[67.17,24.76],[67.1,24.79],[66.7,24.86],[66.68,24.93],[66.71,25.11],[66.7,25.23],[66.57,25.38],[66.53,25.48],[66.43,25.58],[66.32,25.6],[66.22,25.59],[66.16,25.55],[66.13,25.49],[66.36,25.51],[66.41,25.49],[66.47,25.45],[66.4,25.45],[66.33,25.47],[66.23,25.46],[65.88,25.42],[65.68,25.36],[65.41,25.37],[65.06,25.31],[64.78,25.31],[64.66,25.18],[64.59,25.21],[64.54,25.24],[64.15,25.33],[64.12,25.37],[64.06,25.4],[63.99,25.35],[63.94,25.34],[63.72,25.39],[63.56,25.35],[63.5,25.3],[63.49,25.21],[63.29,25.23],[63.17,25.25],[63.02,25.22],[62.66,25.26],[62.57,25.25],[62.44,25.2],[62.39,25.15],[62.32,25.13],[62.25,25.2],[62.2,25.22],[62.15,25.21],[62.09,25.16],[61.91,25.13],[61.74,25.14],[61.57,25.19],[61.59,25.2],[61.62,25.29],[61.64,25.58],[61.67,25.69],[61.66,25.75],[61.67,25.77],[61.74,25.82],[61.75,25.84],[61.78,26.0],[61.81,26.17],[61.84,26.23],[61.87,26.24],[62.09,26.32],[62.13,26.37],[62.24,26.36],[62.25,26.37],[62.26,26.43],[62.31,26.49],[62.39,26.54],[62.44,26.56],[62.64,26.59],[62.75,26.64],[62.79,26.64],[63.09,26.63],[63.16,26.65],[63.17,26.67],[63.19,26.84],[63.24,26.86],[63.25,26.88],[63.23,27.0],[63.24,27.08],[63.31,27.12],[63.3,27.15],[63.26,27.21],[63.2,27.24],[63.17,27.25],[62.92,27.22],[62.81,27.23],[62.76,27.25],[62.75,27.27],[62.76,27.3],[62.76,27.36],[62.8,27.44],[62.81,27.5],[62.78,27.8],[62.74,28.0],[62.76,28.2],[62.76,28.24],[62.75,28.25],[62.72,28.25],[62.56,28.24],[62.43,28.36],[62.35,28.41],[62.13,28.48],[62.03,28.49],[61.89,28.55],[61.76,28.67],[61.62,28.79],[61.57,28.87],[61.51,29.01],[61.34,29.26],[61.34,29.33],[61.32,29.37],[61.15,29.54],[61.03,29.66],[60.84,29.86],[61.22,29.75],[61.52,29.67],[62.0,29.53],[62.37,29.43],[62.48,29.41],[63.57,29.5],[63.97,29.43],[64.1,29.39],[64.12,29.41],[64.17,29.46],[64.27,29.51],[64.39,29.54],[64.52,29.56],[64.7,29.57],[64.83,29.56],[64.92,29.55],[65.1,29.56],[65.18,29.58],[65.47,29.65],[65.67,29.7],[65.96,29.78],[66.18,29.84],[66.23,29.87],[66.29,29.92],[66.31,29.97],[66.25,30.04],[66.24,30.11],[66.28,30.19],[66.31,30.32],[66.3,30.5],[66.29,30.61],[66.35,30.8],[66.4,30.91],[66.5,30.96],[66.57,31.0],[66.6,31.02],[66.62,31.05],[66.73,31.19],[66.83,31.26],[66.92,31.31],[67.03,31.3],[67.12,31.24],[67.29,31.22],[67.45,31.23],[67.6,31.28],[67.66,31.31],[67.74,31.34],[67.73,31.38],[67.65,31.41],[67.6,31.45],[67.58,31.51],[67.63,31.54],[67.74,31.55],[68.02,31.68],[68.13,31.76],[68.16,31.8],[68.21,31.81],[68.32,31.77],[68.44,31.75],[68.52,31.79],[68.6,31.8],[68.67,31.76],[68.71,31.71],[68.78,31.65],[68.87,31.63],[68.97,31.67],[69.08,31.74],[69.19,31.84],[69.28,31.94],[69.26,32.25],[69.24,32.43],[69.29,32.53],[69.36,32.59],[69.41,32.68],[69.4,32.76],[69.45,32.83],[69.5,33.02],[69.57,33.06],[69.7,33.09],[69.92,33.11],[70.09,33.2],[70.26,33.29],[70.28,33.37],[70.22,33.45],[70.13,33.62],[70.06,33.72],[69.87,33.9],[69.89,34.01],[69.99,34.05],[70.25,33.98],[70.33,33.96],[70.42,33.95],[70.65,33.95],[70.85,33.98],[71.05,34.05],[71.09,34.12],[71.09,34.2],[71.09,34.27],[71.1,34.37],[71.02,34.43],[70.98,34.49],[70.97,34.53],[71.02,34.55],[71.07,34.6],[71.11,34.68],[71.23,34.78],[71.29,34.87],[71.36,34.91],[71.46,34.97],[71.52,35.05],[71.55,35.1],[71.6,35.15],[71.62,35.18],[71.61,35.21],[71.58,35.25],[71.55,35.29],[71.55,35.33],[71.57,35.37],[71.6,35.41],[71.59,35.46],[71.57,35.55],[71.52,35.6],[71.48,35.71],[71.43,35.83],[71.4,35.88],[71.34,35.94],[71.22,36.0],[71.19,36.04],[71.23,36.12],[71.31,36.17],[71.46,36.29],[71.55,36.38],[71.62,36.44],[71.72,36.43],[71.77,36.43],[71.82,36.49],[71.92,36.53],[72.1,36.63],[72.16,36.7],[72.25,36.73],[72.33,36.74],[72.43,36.77],[72.53,36.8],[72.62,36.83],[72.77,36.84],[72.99,36.85],[73.12,36.87],[73.41,36.88],[73.73,36.89],[73.77,36.89],[73.91,36.85],[74.0,36.82],[74.04,36.83],[74.19,36.9],[74.43,36.98],[74.54,37.02],[74.6,37.04],[74.69,37.04],[74.77,37.01],[74.84,36.98],[74.89,36.95],[74.95,36.97],[75.05,36.99],[75.15,36.97],[75.35,36.91],[75.38,36.88],[75.42,36.74],[75.46,36.73],[75.57,36.76],[75.67,36.74],[75.77,36.69],[75.84,36.65],[75.88,36.6],[75.93,36.52],[75.95,36.46],[75.97,36.38],[75.97,36.17],[75.93,36.13],[75.9,36.09],[75.91,36.05],[75.95,36.02],[76.01,36.0],[76.07,35.98],[76.1,35.95],[76.15,35.83],[76.18,35.81],[76.25,35.81],[76.39,35.84],[76.5,35.88],[76.55,35.89],[76.56,35.77],[76.63,35.73],[76.73,35.68],[76.77,35.66]]]]}},{"type":"Feature","properties":{"iso":"OMN","ar":"سلطنة عمان","focus":false},"geometry":{"type":"MultiPolygon","coordinates":[[[[58.72,20.22],[58.66,20.2],[58.64,20.21],[58.64,20.34],[58.79,20.5],[58.88,20.68],[58.95,20.52],[58.84,20.42],[58.77,20.27],[58.72,20.22]]],[[[53.09,16.65],[53.02,16.78],[52.96,16.91],[52.9,17.04],[52.84,17.18],[52.8,17.27],[52.73,17.3],[52.69,17.4],[52.64,17.5],[52.6,17.6],[52.55,17.7],[52.51,17.8],[52.46,17.9],[52.42,18.0],[52.38,18.1],[52.33,18.2],[52.29,18.3],[52.24,18.4],[52.2,18.5],[52.15,18.6],[52.11,18.7],[52.07,18.8],[52.02,18.9],[51.98,19.0],[52.12,19.04],[52.29,19.1],[52.46,19.16],[52.63,19.22],[52.81,19.27],[52.98,19.33],[53.15,19.39],[53.32,19.44],[53.49,19.5],[53.67,19.56],[53.84,19.62],[54.01,19.67],[54.18,19.73],[54.35,19.79],[54.53,19.85],[54.7,19.9],[54.87,19.96],[54.98,20.0],[55.02,20.13],[55.06,20.24],[55.09,20.35],[55.13,20.46],[55.17,20.57],[55.2,20.68],[55.24,20.79],[55.28,20.9],[55.31,21.01],[55.35,21.13],[55.39,21.24],[55.42,21.35],[55.46,21.46],[55.5,21.57],[55.53,21.68],[55.57,21.79],[55.61,21.9],[55.64,22.0],[55.58,22.1],[55.49,22.23],[55.4,22.37],[55.32,22.5],[55.26,22.59],[55.19,22.7],[55.19,22.85],[55.19,22.92],[55.2,23.03],[55.27,23.19],[55.35,23.39],[55.41,23.52],[55.47,23.63],[55.51,23.72],[55.53,23.82],[55.52,23.89],[55.49,23.91],[55.47,23.94],[55.55,23.99],[55.7,24.02],[55.78,24.02],[55.89,24.04],[55.99,24.06],[55.99,24.09],[55.97,24.14],[55.93,24.22],[55.8,24.22],[55.76,24.24],[55.81,24.35],[55.8,24.38],[55.79,24.42],[55.77,24.49],[55.78,24.58],[55.8,24.64],[55.8,24.68],[55.79,24.78],[55.8,24.87],[55.82,24.91],[55.87,24.95],[55.92,24.97],[55.96,24.97],[56.0,24.95],[56.02,24.91],[56.01,24.88],[55.98,24.87],[55.97,24.86],[56.01,24.8],[56.06,24.74],[56.11,24.75],[56.15,24.8],[56.2,24.83],[56.27,24.87],[56.31,24.93],[56.35,24.97],[56.39,24.98],[56.49,24.72],[56.64,24.47],[56.77,24.33],[56.91,24.15],[57.12,23.98],[57.22,23.92],[57.61,23.8],[57.83,23.76],[58.12,23.72],[58.32,23.62],[58.39,23.62],[58.5,23.65],[58.58,23.64],[58.77,23.52],[58.83,23.4],[58.91,23.33],[58.98,23.23],[59.03,23.13],[59.19,22.97],[59.31,22.79],[59.43,22.66],[59.54,22.58],[59.7,22.55],[59.82,22.51],[59.84,22.42],[59.82,22.31],[59.8,22.22],[59.68,22.05],[59.65,21.95],[59.52,21.78],[59.37,21.5],[59.3,21.44],[59.07,21.29],[58.9,21.11],[58.69,20.81],[58.53,20.5],[58.47,20.41],[58.35,20.39],[58.27,20.4],[58.21,20.42],[58.23,20.51],[58.25,20.6],[58.17,20.59],[58.1,20.57],[57.95,20.34],[57.86,20.24],[57.84,20.12],[57.8,19.95],[57.74,19.8],[57.71,19.68],[57.72,19.61],[57.76,19.43],[57.76,19.25],[57.79,19.15],[57.81,19.02],[57.74,18.98],[57.68,18.96],[57.43,18.94],[57.18,18.9],[56.96,18.83],[56.83,18.75],[56.66,18.59],[56.55,18.17],[56.38,17.99],[56.27,17.95],[56.0,17.94],[55.61,17.89],[55.48,17.84],[55.26,17.59],[55.24,17.5],[55.28,17.45],[55.3,17.38],[55.28,17.32],[55.17,17.16],[55.06,17.04],[54.77,16.96],[54.66,17.01],[54.57,17.03],[54.38,17.03],[54.07,17.01],[53.95,16.92],[53.78,16.86],[53.61,16.76],[53.3,16.72],[53.09,16.65]]],[[[56.3,25.65],[56.28,25.63],[56.25,25.63],[56.18,25.64],[56.14,25.69],[56.15,25.75],[56.15,25.85],[56.17,25.95],[56.17,26.05],[56.12,26.07],[56.08,26.06],[56.16,26.21],[56.2,26.23],[56.23,26.22],[56.31,26.24],[56.35,26.31],[56.38,26.36],[56.41,26.35],[56.43,26.33],[56.42,26.21],[56.42,26.11],[56.37,25.8],[56.33,25.75],[56.31,25.71],[56.3,25.65]]],[[[56.28,25.24],[56.24,25.21],[56.21,25.21],[56.22,25.27],[56.23,25.3],[56.28,25.3],[56.29,25.28],[56.28,25.24]]]]}},{"type":"Feature","properties":{"iso":"LBN","ar":"لبنان","focus":false},"geometry":{"type":"MultiPolygon","coordinates":[[[[35.98,34.63],[36.15,34.63],[36.26,34.63],[36.3,34.68],[36.38,34.66],[36.43,34.61],[36.39,34.57],[36.33,34.51],[36.33,34.5],[36.38,34.5],[36.46,34.47],[36.5,34.43],[36.58,34.22],[36.54,34.13],[36.46,34.06],[36.42,34.05],[36.35,34.01],[36.3,33.96],[36.28,33.93],[36.28,33.89],[36.36,33.86],[36.37,33.84],[36.35,33.83],[36.28,33.84],[36.2,33.84],[36.15,33.84],[36.09,33.83],[36.02,33.78],[35.99,33.75],[35.97,33.73],[35.94,33.67],[35.97,33.62],[36.03,33.6],[36.03,33.59],[36.02,33.56],[35.97,33.53],[35.93,33.5],[35.91,33.47],[35.87,33.43],[35.84,33.42],[35.79,33.37],[35.73,33.33],[35.63,33.28],[35.6,33.24],[35.58,33.27],[35.53,33.25],[35.49,33.12],[35.41,33.08],[35.31,33.08],[35.22,33.09],[35.11,33.08],[35.16,33.16],[35.2,33.26],[35.25,33.39],[35.34,33.5],[35.51,33.88],[35.61,34.03],[35.65,34.25],[35.8,34.44],[35.92,34.49],[35.98,34.55],[35.98,34.63]]]]}},{"type":"Feature","properties":{"iso":"KWT","ar":"الكويت","focus":false},"geometry":{"type":"MultiPolygon","coordinates":[[[[48.28,29.62],[48.22,29.6],[48.18,29.61],[48.14,29.67],[48.08,29.8],[48.11,29.85],[48.11,29.87],[48.12,29.89],[48.14,29.9],[48.16,29.96],[48.18,29.98],[48.23,29.94],[48.35,29.78],[48.35,29.72],[48.34,29.69],[48.28,29.62]]],[[[48.44,28.54],[48.27,28.54],[48.05,28.54],[47.87,28.54],[47.67,28.53],[47.58,28.63],[47.55,28.73],[47.52,28.84],[47.43,28.99],[47.14,29.03],[46.98,29.05],[46.72,29.07],[46.53,29.1],[46.69,29.26],[46.77,29.35],[46.91,29.54],[46.98,29.67],[47.04,29.82],[47.1,29.94],[47.11,29.96],[47.15,30.0],[47.22,30.04],[47.33,30.08],[47.51,30.1],[47.64,30.1],[47.67,30.1],[47.75,30.08],[47.98,29.98],[47.97,29.95],[48.01,29.84],[48.08,29.72],[48.14,29.62],[48.14,29.57],[48.09,29.58],[48.05,29.6],[47.97,29.62],[47.82,29.49],[47.73,29.42],[47.72,29.39],[47.85,29.37],[47.94,29.37],[48.0,29.39],[48.05,29.36],[48.09,29.28],[48.1,29.21],[48.18,28.98],[48.25,28.9],[48.34,28.76],[48.37,28.69],[48.39,28.63],[48.44,28.54]]]]}},{"type":"Feature","properties":{"iso":"JOR","ar":"الأردن","focus":false},"geometry":{"type":"MultiPolygon","coordinates":[[[[35.79,32.73],[35.89,32.71],[35.96,32.67],[36.06,32.53],[36.22,32.5],[36.28,32.46],[36.37,32.39],[36.48,32.36],[36.82,32.32],[37.09,32.47],[37.32,32.59],[37.58,32.73],[37.75,32.83],[38.06,32.99],[38.25,33.1],[38.52,33.24],[38.77,33.37],[38.85,33.15],[38.91,32.93],[38.99,32.71],[39.06,32.49],[38.98,32.47],[39.04,32.31],[39.14,32.33],[39.25,32.35],[39.29,32.24],[39.15,32.12],[39.0,32.01],[38.96,31.99],[38.77,31.95],[38.38,31.85],[38.11,31.78],[37.77,31.7],[37.49,31.63],[37.22,31.56],[36.96,31.49],[37.11,31.36],[37.33,31.15],[37.48,31.01],[37.66,30.83],[37.81,30.67],[37.98,30.5],[37.86,30.44],[37.67,30.35],[37.65,30.33],[37.63,30.31],[37.55,30.14],[37.49,30.01],[37.47,30.0],[37.2,29.95],[36.93,29.9],[36.76,29.87],[36.7,29.83],[36.59,29.67],[36.48,29.5],[36.28,29.36],[36.07,29.2],[36.02,29.19],[35.86,29.21],[35.6,29.25],[35.34,29.29],[35.16,29.32],[34.95,29.35],[34.98,29.48],[34.97,29.56],[35.02,29.79],[35.05,29.9],[35.07,29.98],[35.14,30.14],[35.13,30.2],[35.15,30.38],[35.14,30.42],[35.17,30.52],[35.24,30.67],[35.3,30.8],[35.32,30.86],[35.38,30.98],[35.44,31.13],[35.41,31.21],[35.4,31.23],[35.42,31.32],[35.42,31.33],[35.45,31.48],[35.47,31.56],[35.5,31.67],[35.56,31.77],[35.53,31.98],[35.53,32.1],[35.57,32.24],[35.55,32.4],[35.57,32.62],[35.57,32.64],[35.59,32.67],[35.61,32.68],[35.73,32.73],[35.79,32.73]]]]}},{"type":"Feature","properties":{"iso":"ISR","ar":"إسرائيل","focus":false},"geometry":{"type":"MultiPolygon","coordinates":[[[[35.84,33.42],[35.82,33.36],[35.79,33.33],[35.79,33.29],[35.8,33.26],[35.81,33.21],[35.83,33.2],[35.83,33.16],[35.82,33.13],[35.82,33.11],[35.85,33.08],[35.86,32.99],[35.89,32.94],[35.84,32.88],[35.83,32.82],[35.79,32.73],[35.73,32.73],[35.61,32.68],[35.59,32.67],[35.57,32.64],[35.57,32.62],[35.55,32.4],[35.48,32.4],[35.4,32.45],[35.39,32.49],[35.36,32.51],[35.3,32.51],[35.19,32.53],[35.07,32.46],[35.01,32.34],[35.0,32.28],[34.96,32.16],[34.97,32.09],[34.98,31.99],[34.99,31.91],[34.98,31.87],[34.95,31.84],[34.96,31.82],[34.98,31.82],[35.05,31.84],[35.13,31.82],[35.2,31.78],[35.2,31.75],[35.15,31.73],[35.03,31.67],[34.95,31.6],[34.93,31.54],[34.87,31.4],[34.88,31.37],[34.91,31.35],[35.1,31.37],[35.28,31.42],[35.41,31.48],[35.45,31.48],[35.42,31.33],[35.42,31.32],[35.4,31.23],[35.41,31.21],[35.44,31.13],[35.38,30.98],[35.32,30.86],[35.3,30.8],[35.24,30.67],[35.17,30.52],[35.14,30.42],[35.15,30.38],[35.13,30.2],[35.14,30.14],[35.07,29.98],[35.05,29.9],[35.02,29.79],[34.97,29.56],[34.9,29.48],[34.87,29.56],[34.79,29.81],[34.74,29.98],[34.66,30.19],[34.53,30.45],[34.52,30.51],[34.49,30.6],[34.4,30.83],[34.33,31.0],[34.25,31.21],[34.35,31.29],[34.35,31.36],[34.53,31.53],[34.52,31.54],[34.48,31.58],[34.48,31.59],[34.68,31.9],[34.8,32.2],[34.92,32.61],[35.01,32.83],[35.08,32.97],[35.11,33.08],[35.22,33.09],[35.31,33.08],[35.41,33.08],[35.49,33.12],[35.53,33.25],[35.58,33.27],[35.6,33.24],[35.63,33.28],[35.73,33.33],[35.79,33.37],[35.84,33.42]]]]}},{"type":"Feature","properties":{"iso":"PSE","ar":"فلسطين","focus":false},"geometry":{"type":"MultiPolygon","coordinates":[[[[34.48,31.58],[34.52,31.54],[34.53,31.53],[34.35,31.36],[34.35,31.29],[34.25,31.21],[34.21,31.29],[34.2,31.32],[34.39,31.48],[34.48,31.58]]],[[[35.55,32.4],[35.57,32.24],[35.53,32.1],[35.53,31.98],[35.56,31.77],[35.5,31.67],[35.47,31.56],[35.45,31.48],[35.41,31.48],[35.28,31.42],[35.1,31.37],[34.91,31.35],[34.88,31.37],[34.87,31.4],[34.93,31.54],[34.95,31.6],[35.03,31.67],[35.15,31.73],[35.2,31.75],[35.2,31.78],[35.13,31.82],[35.05,31.84],[34.98,31.82],[34.96,31.82],[34.95,31.84],[34.98,31.87],[34.99,31.91],[34.98,31.99],[34.97,32.09],[34.96,32.16],[35.0,32.28],[35.01,32.34],[35.07,32.46],[35.19,32.53],[35.3,32.51],[35.36,32.51],[35.39,32.49],[35.4,32.45],[35.48,32.4],[35.55,32.4]]]]}},{"type":"Feature","properties":{"iso":"IRQ","ar":"العراق","focus":false},"geometry":{"type":"MultiPolygon","coordinates":[[[[42.36,37.11],[42.46,37.13],[42.64,37.25],[42.74,37.36],[42.77,37.37],[42.87,37.33],[42.94,37.32],[43.09,37.37],[43.19,37.34],[43.26,37.32],[43.31,37.31],[43.52,37.24],[43.57,37.24],[43.68,37.23],[43.84,37.22],[43.94,37.27],[44.01,37.31],[44.06,37.31],[44.11,37.3],[44.16,37.28],[44.19,37.25],[44.21,37.2],[44.2,37.05],[44.22,37.01],[44.25,36.98],[44.28,36.98],[44.33,37.01],[44.4,37.06],[44.5,37.11],[44.57,37.16],[44.61,37.18],[44.67,37.17],[44.73,37.17],[44.77,37.14],[44.8,37.06],[44.88,36.8],[44.93,36.77],[44.98,36.74],[45.02,36.7],[45.03,36.66],[45.03,36.6],[45.03,36.53],[45.05,36.47],[45.08,36.43],[45.11,36.41],[45.16,36.41],[45.21,36.4],[45.24,36.36],[45.35,36.05],[45.36,36.02],[45.41,36.0],[45.48,36.01],[45.56,35.98],[45.65,35.93],[45.72,35.84],[45.78,35.82],[45.94,35.84],[46.17,35.82],[46.27,35.77],[46.26,35.74],[46.18,35.71],[46.04,35.67],[46.0,35.61],[45.97,35.52],[45.98,35.48],[46.01,35.42],[46.11,35.32],[46.12,35.28],[46.14,35.23],[46.15,35.2],[46.13,35.13],[46.04,35.08],[45.92,35.03],[45.68,34.8],[45.66,34.75],[45.66,34.61],[45.64,34.57],[45.56,34.57],[45.5,34.58],[45.5,34.53],[45.46,34.47],[45.44,34.42],[45.53,34.28],[45.54,34.22],[45.53,34.15],[45.45,34.04],[45.4,33.97],[45.41,33.95],[45.47,33.93],[45.67,33.69],[45.74,33.6],[45.82,33.62],[45.85,33.62],[45.88,33.61],[45.89,33.58],[45.89,33.55],[45.87,33.49],[45.98,33.47],[46.02,33.42],[46.15,33.23],[46.14,33.17],[46.08,33.09],[46.08,33.03],[46.09,32.98],[46.11,32.96],[46.3,32.95],[46.38,32.93],[46.57,32.83],[46.79,32.69],[46.97,32.57],[47.12,32.47],[47.29,32.47],[47.33,32.46],[47.37,32.42],[47.42,32.34],[47.51,32.15],[47.59,32.09],[47.71,31.94],[47.83,31.79],[47.75,31.6],[47.68,31.4],[47.68,31.14],[47.68,31.0],[47.84,31.0],[48.01,30.99],[48.01,30.82],[48.01,30.66],[48.01,30.47],[48.07,30.46],[48.15,30.42],[48.18,30.36],[48.23,30.32],[48.28,30.32],[48.33,30.29],[48.38,30.23],[48.4,30.19],[48.39,30.16],[48.4,30.11],[48.43,30.04],[48.48,30.0],[48.55,29.96],[48.45,29.94],[48.35,29.96],[48.14,30.04],[48.07,30.04],[47.98,30.01],[47.98,29.98],[47.75,30.08],[47.67,30.1],[47.64,30.1],[47.51,30.1],[47.33,30.08],[47.22,30.04],[47.15,30.0],[47.11,29.96],[47.1,29.94],[47.04,29.82],[46.98,29.67],[46.91,29.54],[46.77,29.35],[46.69,29.26],[46.53,29.1],[46.36,29.06],[45.95,29.1],[45.5,29.13],[45.05,29.17],[44.72,29.19],[44.69,29.2],[44.36,29.44],[44.1,29.62],[43.77,29.85],[43.44,30.08],[43.1,30.32],[42.86,30.5],[42.56,30.72],[42.29,30.92],[42.07,31.08],[41.8,31.22],[41.59,31.33],[41.27,31.49],[41.02,31.62],[40.81,31.73],[40.48,31.89],[40.37,31.94],[40.03,32.0],[39.7,32.04],[39.37,32.09],[39.15,32.12],[39.29,32.24],[39.25,32.35],[39.14,32.33],[39.04,32.31],[38.98,32.47],[39.06,32.49],[38.99,32.71],[38.91,32.93],[38.85,33.15],[38.77,33.37],[39.06,33.51],[39.27,33.62],[39.56,33.77],[39.85,33.91],[40.12,34.05],[40.42,34.2],[40.69,34.33],[40.94,34.39],[40.99,34.43],[41.1,34.61],[41.19,34.77],[41.2,34.81],[41.2,35.03],[41.22,35.29],[41.25,35.43],[41.3,35.55],[41.35,35.64],[41.36,35.72],[41.35,35.81],[41.3,35.94],[41.25,36.07],[41.25,36.2],[41.26,36.27],[41.3,36.38],[41.35,36.46],[41.42,36.51],[41.65,36.57],[41.79,36.6],[41.97,36.74],[42.08,36.83],[42.24,36.96],[42.35,37.06],[42.36,37.1],[42.36,37.11]]]]}},{"type":"Feature","properties":{"iso":"IRN","ar":"إيران","focus":false},"geometry":{"type":"MultiPolygon","coordinates":[[[[56.19,26.92],[56.09,26.8],[55.95,26.7],[55.89,26.73],[55.85,26.73],[55.75,26.69],[55.67,26.69],[55.54,26.62],[55.42,26.58],[55.34,26.59],[55.31,26.59],[55.3,26.64],[55.3,26.66],[55.35,26.65],[55.53,26.71],[55.76,26.81],[55.78,26.86],[55.75,26.93],[55.76,26.95],[55.91,26.91],[56.07,26.98],[56.21,27.0],[56.28,26.95],[56.19,26.92]]],[[[53.91,37.34],[54.19,37.33],[54.3,37.35],[54.46,37.41],[54.58,37.44],[54.64,37.44],[54.7,37.47],[54.75,37.5],[54.85,37.72],[54.9,37.78],[55.08,37.9],[55.22,37.98],[55.38,38.05],[55.58,38.1],[55.84,38.09],[56.05,38.08],[56.17,38.08],[56.23,38.07],[56.27,38.08],[56.3,38.09],[56.32,38.19],[56.37,38.22],[56.44,38.25],[56.54,38.25],[56.67,38.26],[56.77,38.25],[56.91,38.21],[57.08,38.21],[57.19,38.22],[57.26,38.18],[57.31,38.13],[57.33,38.09],[57.34,38.03],[57.34,37.99],[57.35,37.97],[57.42,37.95],[57.52,37.93],[57.71,37.91],[57.89,37.86],[57.98,37.83],[58.11,37.78],[58.26,37.67],[58.32,37.65],[58.39,37.64],[58.44,37.64],[58.55,37.69],[58.65,37.65],[58.7,37.66],[58.82,37.68],[58.94,37.65],[59.24,37.52],[59.27,37.52],[59.3,37.51],[59.33,37.48],[59.34,37.44],[59.37,37.33],[59.45,37.25],[59.56,37.18],[59.69,37.14],[59.95,37.04],[60.06,36.96],[60.18,36.83],[60.32,36.65],[60.34,36.64],[60.71,36.64],[61.12,36.64],[61.17,36.57],[61.16,36.43],[61.18,36.29],[61.21,36.19],[61.21,36.1],[61.18,36.05],[61.16,36.0],[61.15,35.98],[61.21,35.94],[61.25,35.87],[61.26,35.76],[61.24,35.71],[61.24,35.66],[61.26,35.62],[61.28,35.55],[61.28,35.51],[61.25,35.47],[61.23,35.42],[61.2,35.36],[61.19,35.31],[61.14,35.29],[61.1,35.27],[61.11,35.21],[61.13,35.16],[61.15,35.09],[61.12,35.05],[61.11,35.0],[61.07,34.92],[61.08,34.86],[61.04,34.8],[60.99,34.75],[60.96,34.71],[60.95,34.65],[60.91,34.63],[60.85,34.59],[60.8,34.55],[60.74,34.54],[60.73,34.52],[60.74,34.49],[60.76,34.48],[60.8,34.42],[60.89,34.32],[60.64,34.31],[60.57,34.22],[60.49,34.09],[60.53,33.84],[60.49,33.71],[60.51,33.64],[60.57,33.59],[60.65,33.56],[60.81,33.56],[60.91,33.54],[60.92,33.51],[60.86,33.46],[60.77,33.36],[60.72,33.32],[60.56,33.14],[60.56,33.06],[60.58,32.99],[60.64,32.79],[60.71,32.6],[60.83,32.25],[60.83,32.17],[60.79,31.99],[60.79,31.88],[60.8,31.73],[60.79,31.66],[60.82,31.5],[60.85,31.48],[61.11,31.45],[61.35,31.42],[61.66,31.38],[61.76,31.29],[61.81,31.07],[61.81,30.91],[61.78,30.83],[61.56,30.6],[61.33,30.36],[61.1,30.13],[60.84,29.86],[61.03,29.66],[61.15,29.54],[61.32,29.37],[61.34,29.33],[61.34,29.26],[61.51,29.01],[61.57,28.87],[61.62,28.79],[61.76,28.67],[61.89,28.55],[62.03,28.49],[62.13,28.48],[62.35,28.41],[62.43,28.36],[62.56,28.24],[62.72,28.25],[62.75,28.25],[62.76,28.24],[62.76,28.2],[62.74,28.0],[62.78,27.8],[62.81,27.5],[62.8,27.44],[62.76,27.36],[62.76,27.3],[62.75,27.27],[62.76,27.25],[62.81,27.23],[62.92,27.22],[63.17,27.25],[63.2,27.24],[63.26,27.21],[63.3,27.15],[63.31,27.12],[63.24,27.08],[63.23,27.0],[63.25,26.88],[63.24,26.86],[63.19,26.84],[63.17,26.67],[63.16,26.65],[63.09,26.63],[62.79,26.64],[62.75,26.64],[62.64,26.59],[62.44,26.56],[62.39,26.54],[62.31,26.49],[62.26,26.43],[62.25,26.37],[62.24,26.36],[62.13,26.37],[62.09,26.32],[61.87,26.24],[61.84,26.23],[61.81,26.17],[61.78,26.0],[61.75,25.84],[61.74,25.82],[61.67,25.77],[61.66,25.75],[61.67,25.69],[61.64,25.58],[61.62,25.29],[61.59,25.2],[61.53,25.2],[61.49,25.15],[61.41,25.1],[61.24,25.14],[61.11,25.18],[60.66,25.28],[60.62,25.33],[60.59,25.41],[60.51,25.44],[60.4,25.31],[60.02,25.38],[59.9,25.36],[59.82,25.4],[59.62,25.4],[59.46,25.48],[59.23,25.43],[59.05,25.42],[58.8,25.55],[58.53,25.59],[58.31,25.58],[58.2,25.59],[58.02,25.64],[57.94,25.69],[57.8,25.65],[57.73,25.72],[57.33,25.79],[57.26,25.92],[57.21,26.04],[57.2,26.16],[57.1,26.37],[57.07,26.68],[57.04,26.8],[56.98,26.91],[56.91,26.99],[56.81,27.09],[56.73,27.13],[56.36,27.2],[56.28,27.19],[56.12,27.14],[55.94,27.04],[55.65,26.98],[55.59,26.93],[55.52,26.83],[55.42,26.77],[55.29,26.79],[55.15,26.73],[54.9,26.56],[54.76,26.51],[54.64,26.51],[54.52,26.59],[54.25,26.7],[54.07,26.73],[53.82,26.71],[53.71,26.73],[53.51,26.85],[53.45,26.94],[53.34,27.0],[52.98,27.14],[52.69,27.32],[52.64,27.39],[52.6,27.49],[52.48,27.62],[52.19,27.72],[52.03,27.82],[51.84,27.85],[51.67,27.84],[51.59,27.86],[51.52,27.91],[51.28,28.13],[51.28,28.22],[51.13,28.44],[51.09,28.51],[51.06,28.73],[51.02,28.78],[50.87,28.87],[50.84,28.93],[50.88,29.0],[50.88,29.06],[50.8,29.12],[50.68,29.15],[50.65,29.21],[50.67,29.34],[50.65,29.42],[50.54,29.55],[50.39,29.68],[50.23,29.87],[50.17,29.92],[50.13,30.05],[50.07,30.2],[49.98,30.21],[49.55,30.03],[49.43,30.13],[49.05,30.31],[49.03,30.33],[49.0,30.37],[49.05,30.4],[49.1,30.41],[49.19,30.38],[49.25,30.41],[49.22,30.47],[49.13,30.51],[49.0,30.51],[49.04,30.45],[48.92,30.4],[48.89,30.33],[48.91,30.24],[48.92,30.12],[48.87,30.06],[48.83,30.04],[48.67,30.03],[48.6,29.98],[48.55,29.96],[48.48,30.0],[48.43,30.04],[48.4,30.11],[48.39,30.16],[48.4,30.19],[48.38,30.23],[48.33,30.29],[48.28,30.32],[48.23,30.32],[48.18,30.36],[48.15,30.42],[48.07,30.46],[48.01,30.47],[48.01,30.66],[48.01,30.82],[48.01,30.99],[47.84,31.0],[47.68,31.0],[47.68,31.14],[47.68,31.4],[47.75,31.6],[47.83,31.79],[47.71,31.94],[47.59,32.09],[47.51,32.15],[47.42,32.34],[47.37,32.42],[47.33,32.46],[47.29,32.47],[47.12,32.47],[46.97,32.57],[46.79,32.69],[46.57,32.83],[46.38,32.93],[46.3,32.95],[46.11,32.96],[46.09,32.98],[46.08,33.03],[46.08,33.09],[46.14,33.17],[46.15,33.23],[46.02,33.42],[45.98,33.47],[45.87,33.49],[45.89,33.55],[45.89,33.58],[45.88,33.61],[45.85,33.62],[45.82,33.62],[45.74,33.6],[45.67,33.69],[45.47,33.93],[45.41,33.95],[45.4,33.97],[45.45,34.04],[45.53,34.15],[45.54,34.22],[45.53,34.28],[45.44,34.42],[45.46,34.47],[45.5,34.53],[45.5,34.58],[45.56,34.57],[45.64,34.57],[45.66,34.61],[45.66,34.75],[45.68,34.8],[45.92,35.03],[46.04,35.08],[46.13,35.13],[46.15,35.2],[46.14,35.23],[46.12,35.28],[46.11,35.32],[46.01,35.42],[45.98,35.48],[45.97,35.52],[46.0,35.61],[46.04,35.67],[46.18,35.71],[46.26,35.74],[46.27,35.77],[46.17,35.82],[45.94,35.84],[45.78,35.82],[45.72,35.84],[45.65,35.93],[45.56,35.98],[45.48,36.01],[45.41,36.0],[45.36,36.02],[45.35,36.05],[45.24,36.36],[45.21,36.4],[45.16,36.41],[45.11,36.41],[45.08,36.43],[45.05,36.47],[45.03,36.53],[45.03,36.6],[45.03,36.66],[45.02,36.7],[44.98,36.74],[44.93,36.77],[44.88,36.8],[44.8,37.06],[44.77,37.14],[44.77,37.16],[44.76,37.22],[44.8,37.27],[44.79,37.29],[44.72,37.36],[44.6,37.42],[44.57,37.44],[44.57,37.51],[44.58,37.56],[44.57,37.61],[44.55,37.64],[44.55,37.66],[44.59,37.71],[44.56,37.74],[44.4,37.83],[44.34,37.87],[44.22,37.88],[44.21,37.91],[44.23,37.97],[44.27,38.04],[44.33,38.11],[44.35,38.15],[44.37,38.21],[44.38,38.25],[44.45,38.32],[44.45,38.33],[44.43,38.36],[44.38,38.37],[44.32,38.37],[44.3,38.39],[44.29,38.42],[44.3,38.56],[44.28,38.64],[44.26,38.7],[44.27,38.84],[44.23,38.86],[44.17,38.93],[44.14,38.99],[44.16,39.02],[44.17,39.06],[44.18,39.11],[44.18,39.14],[44.12,39.18],[44.08,39.22],[44.07,39.26],[44.06,39.31],[44.03,39.35],[44.02,39.38],[44.04,39.39],[44.12,39.41],[44.24,39.4],[44.34,39.4],[44.39,39.42],[44.46,39.67],[44.52,39.73],[44.59,39.77],[44.73,39.68],[44.78,39.65],[44.82,39.65],[44.84,39.63],[45.0,39.42],[45.07,39.36],[45.11,39.31],[45.14,39.25],[45.19,39.22],[45.26,39.19],[45.34,39.14],[45.39,39.1],[45.48,39.01],[45.58,38.97],[45.92,38.91],[46.11,38.88],[46.17,38.87],[46.32,38.91],[46.49,38.91],[46.55,38.9],[46.78,39.09],[46.85,39.15],[46.99,39.18],[47.07,39.25],[47.19,39.34],[47.34,39.42],[47.48,39.5],[47.58,39.54],[47.77,39.65],[47.89,39.69],[48.0,39.68],[48.15,39.56],[48.28,39.45],[48.32,39.4],[48.26,39.35],[48.14,39.31],[48.11,39.28],[48.1,39.24],[48.11,39.2],[48.13,39.17],[48.27,39.1],[48.29,39.06],[48.29,39.02],[48.28,38.99],[48.24,38.98],[48.14,38.96],[48.05,38.94],[48.02,38.91],[47.99,38.88],[48.0,38.85],[48.02,38.82],[48.2,38.72],[48.23,38.69],[48.26,38.64],[48.31,38.61],[48.38,38.61],[48.42,38.59],[48.59,38.41],[48.64,38.4],[48.84,38.44],[48.87,38.44],[48.87,38.39],[48.9,38.14],[48.93,38.02],[48.96,37.89],[49.02,37.78],[49.08,37.67],[49.17,37.6],[49.37,37.52],[49.47,37.5],[49.73,37.48],[49.98,37.44],[50.13,37.41],[50.18,37.38],[50.21,37.34],[50.34,37.15],[50.53,37.01],[50.93,36.81],[51.12,36.74],[51.76,36.61],[52.19,36.62],[53.37,36.87],[53.77,36.93],[53.92,36.93],[53.83,36.88],[53.68,36.85],[53.77,36.82],[53.91,36.81],[53.97,36.82],[54.02,36.85],[54.02,36.9],[54.02,36.95],[53.95,37.18],[53.91,37.34]]]]}},{"type":"Feature","properties":{"iso":"ETH","ar":"إثيوبيا","focus":false},"geometry":{"type":"MultiPolygon","coordinates":[[[[35.27,5.49],[35.25,5.51],[35.16,5.58],[35.08,5.67],[35.03,5.77],[34.98,5.86],[34.96,6.05],[34.9,6.16],[34.84,6.3],[34.75,6.57],[34.71,6.66],[34.64,6.72],[34.56,6.78],[34.48,6.9],[34.28,7.0],[34.2,7.08],[34.06,7.23],[34.03,7.3],[34.02,7.37],[33.98,7.43],[33.9,7.51],[33.67,7.67],[33.6,7.69],[33.52,7.71],[33.39,7.72],[33.23,7.76],[33.08,7.82],[33.01,7.87],[33.0,7.9],[33.01,7.95],[33.07,8.04],[33.17,8.25],[33.23,8.4],[33.28,8.44],[33.41,8.45],[33.55,8.44],[33.64,8.43],[33.79,8.43],[33.95,8.44],[34.02,8.49],[34.07,8.55],[34.09,8.58],[34.1,8.68],[34.1,8.75],[34.09,9.04],[34.08,9.22],[34.08,9.42],[34.08,9.46],[34.08,9.51],[34.12,9.73],[34.16,9.85],[34.19,9.92],[34.29,10.12],[34.31,10.19],[34.31,10.25],[34.28,10.53],[34.34,10.66],[34.43,10.79],[34.51,10.84],[34.57,10.88],[34.6,10.86],[34.67,10.8],[34.77,10.75],[34.82,10.76],[34.88,10.81],[34.93,10.86],[34.92,10.96],[34.97,11.16],[34.96,11.28],[35.01,11.42],[35.06,11.62],[35.08,11.75],[35.11,11.82],[35.25,11.96],[35.37,12.16],[35.45,12.3],[35.6,12.54],[35.67,12.62],[35.73,12.66],[35.82,12.68],[35.99,12.71],[36.11,12.73],[36.13,12.76],[36.14,12.81],[36.14,12.91],[36.16,13.09],[36.21,13.27],[36.27,13.41],[36.31,13.47],[36.35,13.53],[36.39,13.63],[36.45,13.84],[36.44,13.99],[36.52,14.26],[36.54,14.26],[36.68,14.31],[36.81,14.32],[36.94,14.28],[37.02,14.27],[37.06,14.29],[37.1,14.33],[37.13,14.41],[37.19,14.45],[37.26,14.45],[37.35,14.37],[37.51,14.16],[37.55,14.14],[37.57,14.15],[37.65,14.32],[37.71,14.46],[37.82,14.71],[37.88,14.85],[37.94,14.81],[38.0,14.74],[38.07,14.7],[38.14,14.68],[38.18,14.68],[38.22,14.65],[38.38,14.47],[38.43,14.43],[38.5,14.42],[38.81,14.48],[39.0,14.59],[39.02,14.63],[39.07,14.63],[39.14,14.58],[39.16,14.54],[39.2,14.48],[39.27,14.47],[39.45,14.51],[39.53,14.54],[39.6,14.52],[39.7,14.5],[39.76,14.5],[39.9,14.44],[40.06,14.46],[40.14,14.46],[40.22,14.43],[40.35,14.34],[40.52,14.23],[40.77,14.14],[40.82,14.11],[40.94,13.98],[41.12,13.74],[41.36,13.5],[41.62,13.31],[41.77,13.18],[41.86,13.03],[41.95,12.88],[42.05,12.82],[42.13,12.77],[42.23,12.66],[42.29,12.57],[42.38,12.47],[42.28,12.32],[42.15,12.13],[42.0,11.91],[41.95,11.86],[41.82,11.72],[41.79,11.69],[41.77,11.59],[41.76,11.41],[41.78,11.19],[41.8,10.98],[41.87,10.96],[41.96,10.94],[42.05,10.97],[42.17,10.99],[42.31,11.01],[42.47,11.05],[42.56,11.08],[42.65,11.08],[42.74,11.04],[42.78,11.01],[42.84,11.0],[42.92,11.0],[42.91,10.96],[42.86,10.9],[42.81,10.85],[42.76,10.79],[42.66,10.62],[42.66,10.6],[42.67,10.57],[42.73,10.49],[42.78,10.37],[42.82,10.26],[42.84,10.2],[42.91,10.14],[43.01,10.01],[43.07,9.93],[43.18,9.88],[43.22,9.77],[43.3,9.61],[43.39,9.48],[43.48,9.38],[43.58,9.34],[43.62,9.34],[43.83,9.15],[43.98,9.01],[44.02,8.99],[44.31,8.89],[44.63,8.79],[44.89,8.7],[45.23,8.59],[45.56,8.48],[45.86,8.38],[46.3,8.23],[46.64,8.12],[46.92,8.03],[46.98,8.0],[47.31,8.0],[47.64,8.0],[47.98,8.0],[47.73,7.76],[47.45,7.49],[47.16,7.21],[46.97,7.03],[46.67,6.74],[46.42,6.5],[46.17,6.23],[45.93,6.0],[45.63,5.67],[45.44,5.46],[45.13,5.12],[44.94,4.91],[44.91,4.9],[44.64,4.92],[44.37,4.93],[44.03,4.95],[43.99,4.95],[43.89,4.93],[43.83,4.91],[43.58,4.85],[43.54,4.84],[43.33,4.75],[43.13,4.64],[43.02,4.56],[42.93,4.45],[42.89,4.36],[42.86,4.32],[42.79,4.29],[42.36,4.21],[42.23,4.2],[42.02,4.14],[41.92,4.03],[41.88,3.98],[41.74,3.98],[41.48,3.96],[41.37,3.95],[41.32,3.94],[41.22,3.94],[41.14,3.96],[41.09,3.99],[41.02,4.06],[40.87,4.19],[40.77,4.27],[40.53,4.18],[40.32,4.08],[40.01,3.95],[39.84,3.85],[39.79,3.75],[39.66,3.58],[39.54,3.47],[39.49,3.46],[39.23,3.48],[39.13,3.5],[38.97,3.52],[38.75,3.56],[38.61,3.6],[38.45,3.6],[38.23,3.62],[38.09,3.65],[37.94,3.75],[37.76,3.86],[37.58,3.99],[37.38,4.11],[37.15,4.25],[36.91,4.41],[36.85,4.43],[36.82,4.43],[36.55,4.44],[36.27,4.44],[36.08,4.45],[36.02,4.47],[35.98,4.5],[35.92,4.62],[35.85,4.7],[35.76,4.81],[35.76,4.95],[35.78,5.11],[35.8,5.16],[35.79,5.21],[35.79,5.28],[35.75,5.34],[35.47,5.42],[35.42,5.41],[35.38,5.39],[35.33,5.36],[35.29,5.38],[35.26,5.41],[35.26,5.46],[35.27,5.49]]]]}},{"type":"Feature","properties":{"iso":"ERI","ar":"إريتريا","focus":false},"geometry":{"type":"MultiPolygon","coordinates":[[[[36.52,14.26],[36.49,14.54],[36.47,14.74],[36.45,14.94],[36.43,15.13],[36.52,15.25],[36.57,15.36],[36.68,15.73],[36.72,15.8],[36.81,15.99],[36.83,16.05],[36.91,16.3],[36.91,16.46],[36.89,16.62],[36.94,16.72],[36.98,16.8],[36.98,16.87],[37.0,17.02],[37.01,17.06],[37.06,17.06],[37.17,17.04],[37.25,17.06],[37.34,17.06],[37.41,17.06],[37.45,17.11],[37.51,17.29],[37.55,17.32],[37.58,17.34],[37.66,17.37],[37.73,17.42],[37.78,17.46],[37.8,17.47],[37.86,17.47],[37.92,17.49],[37.95,17.52],[38.03,17.54],[38.1,17.53],[38.15,17.55],[38.18,17.56],[38.22,17.56],[38.25,17.58],[38.27,17.62],[38.29,17.64],[38.35,17.68],[38.37,17.72],[38.39,17.75],[38.4,17.78],[38.42,17.82],[38.52,17.94],[38.61,18.01],[38.91,17.43],[39.03,17.09],[39.14,16.73],[39.22,16.19],[39.3,15.92],[39.42,15.79],[39.51,15.53],[39.58,15.52],[39.63,15.45],[39.72,15.21],[39.79,15.12],[39.82,15.2],[39.82,15.25],[39.79,15.32],[39.81,15.41],[39.86,15.47],[39.98,15.39],[40.04,15.33],[40.06,15.22],[40.08,15.15],[40.2,15.01],[40.31,14.97],[40.44,14.96],[40.55,14.93],[40.63,14.88],[40.8,14.74],[41.18,14.62],[41.48,14.24],[41.66,13.98],[42.25,13.59],[42.35,13.4],[42.4,13.21],[42.52,13.22],[42.73,13.02],[42.8,12.86],[42.97,12.81],[43.0,12.9],[43.08,12.82],[43.12,12.71],[43.01,12.66],[42.88,12.62],[42.87,12.62],[42.83,12.57],[42.77,12.42],[42.7,12.38],[42.67,12.38],[42.48,12.51],[42.45,12.52],[42.41,12.49],[42.38,12.47],[42.29,12.57],[42.23,12.66],[42.13,12.77],[42.05,12.82],[41.95,12.88],[41.86,13.03],[41.77,13.18],[41.62,13.31],[41.36,13.5],[41.12,13.74],[40.94,13.98],[40.82,14.11],[40.77,14.14],[40.52,14.23],[40.35,14.34],[40.22,14.43],[40.14,14.46],[40.06,14.46],[39.9,14.44],[39.76,14.5],[39.7,14.5],[39.6,14.52],[39.53,14.54],[39.45,14.51],[39.27,14.47],[39.2,14.48],[39.16,14.54],[39.14,14.58],[39.07,14.63],[39.02,14.63],[39.0,14.59],[38.81,14.48],[38.5,14.42],[38.43,14.43],[38.38,14.47],[38.22,14.65],[38.18,14.68],[38.14,14.68],[38.07,14.7],[38.0,14.74],[37.94,14.81],[37.88,14.85],[37.82,14.71],[37.71,14.46],[37.65,14.32],[37.57,14.15],[37.55,14.14],[37.51,14.16],[37.35,14.37],[37.26,14.45],[37.19,14.45],[37.13,14.41],[37.1,14.33],[37.06,14.29],[37.02,14.27],[36.94,14.28],[36.81,14.32],[36.68,14.31],[36.54,14.26],[36.52,14.26]]],[[[40.08,16.08],[40.11,15.99],[40.01,16.02],[40.0,16.04],[40.04,16.08],[40.05,16.1],[40.08,16.08]]],[[[40.14,15.7],[40.18,15.64],[40.21,15.65],[40.23,15.67],[40.25,15.7],[40.41,15.63],[40.4,15.58],[40.3,15.58],[40.2,15.6],[40.1,15.59],[39.98,15.61],[39.95,15.7],[40.02,15.66],[40.06,15.67],[40.07,15.68],[40.02,15.73],[39.94,15.74],[39.95,15.79],[39.98,15.81],[40.0,15.83],[39.96,15.89],[40.04,15.88],[40.1,15.84],[40.13,15.8],[40.14,15.7]]]]}},{"type":"Feature","properties":{"iso":"EGY","ar":"مصر","focus":false},"geometry":{"type":"MultiPolygon","coordinates":[[[[36.87,22.0],[36.54,22.0],[36.22,22.0],[35.89,22.0],[35.56,22.0],[35.23,22.0],[34.9,22.0],[34.57,22.0],[34.25,22.0],[33.92,22.0],[33.59,22.0],[33.26,22.0],[32.93,22.0],[32.61,22.0],[32.28,22.0],[31.95,22.0],[31.62,22.0],[31.43,22.0],[31.47,22.08],[31.49,22.15],[31.46,22.19],[31.4,22.2],[31.36,22.19],[31.26,22.0],[31.21,21.99],[31.09,21.99],[30.71,21.99],[30.33,22.0],[29.95,22.0],[29.56,22.0],[29.18,22.0],[28.8,22.0],[28.42,22.0],[28.04,22.0],[27.65,22.0],[27.27,22.0],[26.89,22.0],[26.51,22.0],[26.13,22.0],[25.74,22.0],[25.36,22.0],[24.98,22.0],[24.98,22.22],[24.98,22.44],[24.98,22.67],[24.98,22.89],[24.98,23.12],[24.98,23.34],[24.98,23.57],[24.98,23.79],[24.98,24.02],[24.98,24.24],[24.98,24.47],[24.98,24.69],[24.98,24.92],[24.98,25.14],[24.98,25.36],[24.98,25.59],[24.98,25.81],[24.98,26.04],[24.98,26.26],[24.98,26.49],[24.98,26.71],[24.98,26.94],[24.98,27.16],[24.98,27.39],[24.98,27.61],[24.98,27.83],[24.98,28.06],[24.98,28.28],[24.98,28.51],[24.98,28.73],[24.98,28.96],[24.98,29.18],[24.97,29.22],[24.92,29.38],[24.87,29.57],[24.81,29.81],[24.8,29.89],[24.71,30.13],[24.7,30.2],[24.73,30.25],[24.88,30.46],[24.92,30.56],[24.96,30.68],[24.97,30.78],[24.93,30.93],[24.88,31.06],[24.86,31.2],[24.85,31.33],[24.93,31.43],[25.02,31.51],[25.06,31.57],[25.11,31.63],[25.15,31.65],[25.23,31.53],[25.38,31.51],[25.89,31.62],[26.46,31.51],[26.77,31.47],[27.25,31.38],[27.54,31.21],[27.62,31.19],[27.83,31.2],[27.97,31.1],[28.51,31.05],[28.81,30.94],[28.97,30.86],[29.07,30.83],[29.16,30.83],[29.28,30.87],[29.43,30.93],[29.59,31.01],[29.93,31.23],[30.05,31.27],[30.13,31.26],[30.22,31.26],[30.26,31.32],[30.31,31.36],[30.34,31.4],[30.4,31.46],[30.57,31.47],[30.92,31.57],[30.88,31.52],[30.56,31.42],[30.7,31.4],[30.84,31.44],[31.0,31.46],[31.03,31.51],[31.05,31.59],[31.08,31.6],[31.19,31.59],[31.52,31.46],[31.61,31.46],[31.84,31.53],[31.89,31.54],[31.96,31.5],[32.14,31.34],[32.08,31.34],[31.89,31.48],[31.88,31.41],[31.77,31.29],[31.9,31.24],[32.01,31.22],[32.07,31.15],[32.1,31.09],[32.21,31.12],[32.28,31.2],[32.24,31.25],[32.22,31.29],[32.25,31.29],[32.32,31.26],[32.53,31.1],[32.6,31.07],[32.68,31.07],[32.85,31.12],[32.9,31.11],[33.13,31.17],[33.16,31.13],[33.19,31.08],[33.38,31.13],[33.67,31.13],[33.9,31.18],[34.18,31.3],[34.2,31.32],[34.21,31.29],[34.25,31.21],[34.33,31.0],[34.4,30.83],[34.49,30.6],[34.52,30.51],[34.53,30.45],[34.66,30.19],[34.74,29.98],[34.79,29.81],[34.87,29.56],[34.9,29.48],[34.85,29.43],[34.74,29.27],[34.62,28.76],[34.45,28.36],[34.43,28.11],[34.4,28.02],[34.32,27.89],[34.22,27.76],[34.05,27.83],[33.76,28.05],[33.59,28.26],[33.42,28.39],[33.25,28.57],[33.2,28.7],[33.2,28.78],[33.13,28.98],[33.08,29.07],[32.87,29.29],[32.81,29.4],[32.77,29.45],[32.72,29.52],[32.65,29.8],[32.57,29.97],[32.47,29.93],[32.49,29.85],[32.41,29.75],[32.36,29.63],[32.4,29.53],[32.57,29.39],[32.6,29.32],[32.64,29.18],[32.63,28.99],[32.66,28.93],[32.78,28.79],[32.83,28.7],[32.86,28.63],[32.9,28.57],[33.02,28.44],[33.2,28.21],[33.37,28.05],[33.49,27.97],[33.55,27.9],[33.56,27.7],[33.55,27.61],[33.66,27.43],[33.7,27.34],[33.8,27.27],[33.85,27.18],[33.89,27.05],[33.96,26.65],[34.05,26.55],[34.33,26.02],[34.57,25.69],[34.68,25.44],[34.85,25.14],[35.19,24.48],[35.4,24.27],[35.48,24.15],[35.62,24.07],[35.78,23.94],[35.63,23.95],[35.59,23.94],[35.54,23.92],[35.52,23.84],[35.5,23.78],[35.52,23.44],[35.56,23.27],[35.7,22.95],[35.8,22.85],[35.85,22.79],[35.91,22.74],[36.23,22.63],[36.41,22.39],[36.83,22.1],[36.87,22.02],[36.87,22.0]]]]}},{"type":"Feature","properties":{"iso":"DJI","ar":"جيبوتي","focus":false},"geometry":{"type":"MultiPolygon","coordinates":[[[[43.25,11.5],[43.16,11.37],[43.05,11.19],[42.92,11.0],[42.84,11.0],[42.78,11.01],[42.74,11.04],[42.65,11.08],[42.56,11.08],[42.47,11.05],[42.31,11.01],[42.17,10.99],[42.05,10.97],[41.96,10.94],[41.87,10.96],[41.8,10.98],[41.78,11.19],[41.76,11.41],[41.77,11.59],[41.79,11.69],[41.82,11.72],[41.95,11.86],[42.0,11.91],[42.15,12.13],[42.28,12.32],[42.38,12.47],[42.41,12.49],[42.45,12.52],[42.48,12.51],[42.67,12.38],[42.7,12.38],[42.77,12.42],[42.83,12.57],[42.87,12.62],[42.88,12.62],[43.01,12.66],[43.12,12.71],[43.13,12.66],[43.3,12.46],[43.35,12.37],[43.41,12.19],[43.38,12.09],[43.34,12.03],[43.27,11.97],[43.05,11.83],[42.8,11.74],[42.64,11.56],[42.52,11.57],[42.54,11.5],[42.58,11.5],[42.65,11.51],[42.79,11.56],[42.91,11.59],[43.04,11.59],[43.16,11.57],[43.25,11.5]]]]}},{"type":"Feature","properties":{"iso":"CYP","ar":"قبرص","focus":false},"geometry":{"type":"MultiPolygon","coordinates":[[[[32.71,35.17],[32.72,35.15],[32.78,35.12],[32.87,35.09],[32.92,35.09],[32.99,35.12],[33.08,35.15],[33.19,35.17],[33.25,35.16],[33.33,35.15],[33.38,35.16],[33.42,35.14],[33.46,35.1],[33.46,35.0],[33.48,35.0],[33.53,35.04],[33.61,35.02],[33.68,35.02],[33.73,35.04],[33.76,35.04],[33.79,35.05],[33.83,35.07],[33.87,35.09],[33.9,35.09],[33.97,35.06],[34.0,35.07],[34.02,35.05],[34.05,34.99],[33.94,34.97],[33.82,34.97],[33.76,34.97],[33.7,34.97],[33.51,34.81],[33.41,34.75],[33.3,34.72],[33.18,34.7],[33.12,34.7],[33.06,34.67],[33.02,34.64],[33.02,34.6],[33.01,34.57],[32.94,34.58],[32.91,34.64],[32.87,34.66],[32.75,34.65],[32.69,34.65],[32.51,34.71],[32.45,34.73],[32.41,34.78],[32.32,34.95],[32.3,35.08],[32.39,35.05],[32.48,35.09],[32.56,35.16],[32.65,35.18],[32.71,35.17]]]]}},{"type":"Feature","properties":{"iso":"BHR","ar":"البحرين","focus":false},"geometry":{"type":"MultiPolygon","coordinates":[[[[50.61,25.88],[50.57,25.81],[50.54,25.83],[50.47,25.97],[50.49,26.06],[50.45,26.19],[50.47,26.23],[50.56,26.25],[50.59,26.24],[50.56,26.2],[50.61,26.12],[50.62,26.0],[50.61,25.88]]]]}},{"type":"Feature","properties":{"iso":"AZE","ar":"أذربيجان","focus":false},"geometry":{"type":"MultiPolygon","coordinates":[[[[44.82,39.65],[44.78,39.68],[44.77,39.7],[44.87,39.72],[45.03,39.77],[45.08,39.74],[45.12,39.7],[45.15,39.66],[45.15,39.58],[45.17,39.57],[45.25,39.6],[45.29,39.57],[45.35,39.53],[45.46,39.49],[45.61,39.55],[45.69,39.56],[45.75,39.56],[45.78,39.55],[45.8,39.49],[45.78,39.42],[45.77,39.38],[45.8,39.35],[45.92,39.28],[45.98,39.24],[45.95,39.18],[46.05,39.02],[46.08,38.95],[46.11,38.88],[45.92,38.91],[45.58,38.97],[45.48,39.01],[45.39,39.1],[45.34,39.14],[45.26,39.19],[45.19,39.22],[45.14,39.25],[45.11,39.31],[45.07,39.36],[45.0,39.42],[44.84,39.63],[44.82,39.65]]],[[[48.87,38.44],[48.84,38.44],[48.64,38.4],[48.59,38.41],[48.42,38.59],[48.38,38.61],[48.31,38.61],[48.26,38.64],[48.23,38.69],[48.2,38.72],[48.02,38.82],[48.0,38.85],[47.99,38.88],[48.02,38.91],[48.05,38.94],[48.14,38.96],[48.24,38.98],[48.28,38.99],[48.29,39.02],[48.29,39.06],[48.27,39.1],[48.13,39.17],[48.11,39.2],[48.1,39.24],[48.11,39.28],[48.14,39.31],[48.26,39.35],[48.32,39.4],[48.28,39.45],[48.15,39.56],[48.0,39.68],[47.89,39.69],[47.77,39.65],[47.58,39.54],[47.48,39.5],[47.34,39.42],[47.19,39.34],[47.07,39.25],[46.99,39.18],[46.85,39.15],[46.78,39.09],[46.55,38.9],[46.49,38.91],[46.49,39.0],[46.49,39.07],[46.48,39.11],[46.4,39.17],[46.4,39.19],[46.42,39.21],[46.48,39.2],[46.55,39.2],[46.58,39.22],[46.51,39.3],[46.44,39.35],[46.38,39.38],[46.37,39.4],[46.37,39.42],[46.38,39.43],[46.48,39.48],[46.49,39.51],[46.48,39.56],[46.32,39.62],[46.2,39.59],[46.09,39.66],[46.03,39.72],[45.94,39.78],[45.86,39.81],[45.79,39.88],[45.66,39.96],[45.58,39.98],[45.58,39.99],[45.6,40.0],[45.63,40.01],[45.86,40.01],[45.89,40.02],[45.9,40.06],[45.93,40.1],[45.97,40.17],[45.96,40.23],[45.74,40.33],[45.57,40.42],[45.45,40.53],[45.38,40.64],[45.38,40.67],[45.4,40.71],[45.58,40.8],[45.59,40.83],[45.59,40.85],[45.52,40.9],[45.44,40.95],[45.42,40.99],[45.37,41.0],[45.27,41.01],[45.11,41.07],[45.07,41.08],[45.06,41.09],[45.07,41.1],[45.19,41.13],[45.19,41.15],[45.15,41.18],[45.08,41.2],[45.02,41.25],[45.0,41.29],[45.22,41.42],[45.28,41.45],[45.42,41.43],[45.72,41.34],[45.7,41.29],[45.73,41.26],[45.79,41.22],[45.92,41.19],[46.03,41.17],[46.09,41.18],[46.17,41.2],[46.28,41.15],[46.38,41.1],[46.43,41.08],[46.46,41.07],[46.53,41.09],[46.63,41.16],[46.66,41.25],[46.67,41.29],[46.62,41.34],[46.51,41.41],[46.38,41.46],[46.31,41.51],[46.25,41.6],[46.2,41.61],[46.19,41.62],[46.18,41.66],[46.18,41.7],[46.2,41.74],[46.25,41.75],[46.3,41.76],[46.35,41.79],[46.41,41.86],[46.43,41.89],[46.54,41.87],[46.55,41.81],[46.57,41.8],[46.62,41.81],[46.69,41.83],[46.75,41.81],[46.83,41.74],[46.93,41.67],[46.99,41.62],[47.01,41.59],[47.06,41.55],[47.14,41.52],[47.21,41.46],[47.26,41.32],[47.32,41.28],[47.52,41.23],[47.59,41.22],[47.79,41.2],[47.86,41.21],[47.96,41.33],[48.06,41.46],[48.14,41.48],[48.3,41.55],[48.39,41.6],[48.43,41.66],[48.52,41.78],[48.57,41.84],[48.66,41.79],[48.82,41.63],[49.05,41.37],[49.11,41.3],[49.14,41.22],[49.17,41.12],[49.23,41.03],[49.46,40.8],[49.56,40.72],[49.72,40.61],[49.78,40.58],[49.85,40.58],[49.99,40.58],[50.12,40.53],[50.18,40.5],[50.25,40.46],[50.31,40.41],[50.37,40.28],[50.14,40.32],[49.92,40.32],[49.79,40.29],[49.67,40.25],[49.55,40.19],[49.48,40.09],[49.42,39.84],[49.32,39.61],[49.33,39.5],[49.37,39.4],[49.36,39.35],[49.32,39.33],[49.27,39.29],[49.2,39.07],[49.17,39.03],[49.12,39.0],[49.11,39.03],[49.11,39.08],[49.01,39.13],[48.96,39.08],[48.93,38.96],[48.85,38.84],[48.85,38.82],[48.87,38.44]],[[45.55,40.62],[45.56,40.65],[45.53,40.66],[45.5,40.66],[45.48,40.65],[45.48,40.61],[45.51,40.6],[45.55,40.62]]]]}},{"type":"Feature","properties":{"iso":"ARM","ar":"أرمينيا","focus":false},"geometry":{"type":"MultiPolygon","coordinates":[[[[44.77,39.7],[44.73,39.75],[44.56,39.89],[44.4,40.0],[44.29,40.04],[44.18,40.04],[44.01,40.01],[43.94,40.02],[43.79,40.07],[43.67,40.13],[43.68,40.15],[43.71,40.17],[43.68,40.24],[43.61,40.36],[43.62,40.39],[43.59,40.44],[43.57,40.48],[43.67,40.57],[43.71,40.65],[43.72,40.72],[43.7,40.79],[43.63,40.93],[43.59,40.97],[43.52,41.0],[43.46,41.06],[43.44,41.11],[43.49,41.12],[43.65,41.12],[43.79,41.13],[43.91,41.16],[44.08,41.18],[44.15,41.2],[44.23,41.21],[44.47,41.19],[44.56,41.21],[44.84,41.21],[44.85,41.22],[44.81,41.25],[44.81,41.26],[44.98,41.28],[45.0,41.29],[45.02,41.25],[45.08,41.2],[45.15,41.18],[45.19,41.15],[45.19,41.13],[45.07,41.1],[45.06,41.09],[45.07,41.08],[45.11,41.07],[45.27,41.01],[45.37,41.0],[45.42,40.99],[45.44,40.95],[45.52,40.9],[45.59,40.85],[45.59,40.83],[45.58,40.8],[45.4,40.71],[45.38,40.67],[45.38,40.64],[45.45,40.53],[45.57,40.42],[45.74,40.33],[45.96,40.23],[45.97,40.17],[45.93,40.1],[45.9,40.06],[45.89,40.02],[45.86,40.01],[45.63,40.01],[45.6,40.0],[45.58,39.99],[45.58,39.98],[45.66,39.96],[45.79,39.88],[45.86,39.81],[45.94,39.78],[46.03,39.72],[46.09,39.66],[46.2,39.59],[46.32,39.62],[46.48,39.56],[46.49,39.51],[46.48,39.48],[46.38,39.43],[46.37,39.42],[46.37,39.4],[46.38,39.38],[46.44,39.35],[46.51,39.3],[46.58,39.22],[46.55,39.2],[46.48,39.2],[46.42,39.21],[46.4,39.19],[46.4,39.17],[46.48,39.11],[46.49,39.07],[46.49,39.0],[46.49,38.91],[46.32,38.91],[46.17,38.87],[46.11,38.88],[46.08,38.95],[46.05,39.02],[45.95,39.18],[45.98,39.24],[45.92,39.28],[45.8,39.35],[45.77,39.38],[45.78,39.42],[45.8,39.49],[45.78,39.55],[45.75,39.56],[45.69,39.56],[45.61,39.55],[45.46,39.49],[45.35,39.53],[45.29,39.57],[45.25,39.6],[45.17,39.57],[45.15,39.58],[45.15,39.66],[45.12,39.7],[45.08,39.74],[45.03,39.77],[44.87,39.72],[44.77,39.7]],[[45.02,41.03],[45.03,41.05],[45.02,41.08],[44.99,41.09],[44.96,41.08],[44.96,41.05],[44.97,41.03],[45.0,41.02],[45.02,41.03]]]]}},{"type":"Feature","properties":{"iso":"AFG","ar":"أفغانستان","focus":false},"geometry":{"type":"MultiPolygon","coordinates":[[[[66.52,37.35],[66.83,37.37],[67.07,37.33],[67.2,37.24],[67.32,37.21],[67.44,37.26],[67.52,37.27],[67.55,37.24],[67.61,37.22],[67.7,37.23],[67.75,37.2],[67.76,37.17],[67.77,37.14],[67.83,37.06],[67.96,36.97],[68.07,36.95],[68.21,37.02],[68.26,37.01],[68.28,37.04],[68.3,37.09],[68.39,37.14],[68.55,37.18],[68.64,37.22],[68.67,37.26],[68.72,37.27],[68.78,37.26],[68.82,37.27],[68.84,37.3],[68.86,37.32],[68.89,37.33],[68.91,37.33],[68.96,37.33],[69.05,37.27],[69.18,37.16],[69.26,37.11],[69.3,37.12],[69.35,37.15],[69.41,37.21],[69.43,37.29],[69.4,37.4],[69.42,37.49],[69.49,37.55],[69.63,37.59],[69.82,37.61],[69.94,37.6],[69.98,37.57],[70.04,37.55],[70.12,37.54],[70.19,37.58],[70.25,37.66],[70.25,37.77],[70.2,37.89],[70.21,37.92],[70.24,37.94],[70.31,37.98],[70.42,38.08],[70.52,38.19],[70.62,38.33],[70.74,38.42],[70.88,38.46],[71.05,38.42],[71.26,38.31],[71.33,38.17],[71.28,38.01],[71.28,37.92],[71.32,37.9],[71.39,37.91],[71.49,37.93],[71.55,37.93],[71.58,37.91],[71.58,37.86],[71.55,37.8],[71.51,37.6],[71.48,37.44],[71.45,37.27],[71.43,37.13],[71.47,37.02],[71.53,36.85],[71.6,36.73],[71.67,36.7],[71.73,36.68],[71.8,36.69],[71.94,36.77],[72.15,36.9],[72.36,36.98],[72.66,37.03],[72.76,37.17],[72.9,37.27],[73.21,37.41],[73.38,37.46],[73.48,37.47],[73.6,37.45],[73.63,37.44],[73.66,37.43],[73.72,37.42],[73.73,37.38],[73.72,37.33],[73.65,37.29],[73.63,37.26],[73.65,37.24],[73.75,37.23],[73.95,37.28],[74.08,37.32],[74.17,37.33],[74.2,37.37],[74.26,37.42],[74.35,37.42],[74.44,37.4],[74.52,37.38],[74.66,37.39],[74.73,37.36],[74.83,37.29],[74.88,37.24],[74.89,37.23],[74.84,37.23],[74.77,37.25],[74.74,37.29],[74.73,37.29],[74.67,37.27],[74.56,37.24],[74.37,37.16],[74.38,37.14],[74.5,37.06],[74.53,37.03],[74.54,37.02],[74.43,36.98],[74.19,36.9],[74.04,36.83],[74.0,36.82],[73.91,36.85],[73.77,36.89],[73.73,36.89],[73.41,36.88],[73.12,36.87],[72.99,36.85],[72.77,36.84],[72.62,36.83],[72.53,36.8],[72.43,36.77],[72.33,36.74],[72.25,36.73],[72.16,36.7],[72.1,36.63],[71.92,36.53],[71.82,36.49],[71.77,36.43],[71.72,36.43],[71.62,36.44],[71.55,36.38],[71.46,36.29],[71.31,36.17],[71.23,36.12],[71.19,36.04],[71.22,36.0],[71.34,35.94],[71.4,35.88],[71.43,35.83],[71.48,35.71],[71.52,35.6],[71.57,35.55],[71.59,35.46],[71.6,35.41],[71.57,35.37],[71.55,35.33],[71.55,35.29],[71.58,35.25],[71.61,35.21],[71.62,35.18],[71.6,35.15],[71.55,35.1],[71.52,35.05],[71.46,34.97],[71.36,34.91],[71.29,34.87],[71.23,34.78],[71.11,34.68],[71.07,34.6],[71.02,34.55],[70.97,34.53],[70.98,34.49],[71.02,34.43],[71.1,34.37],[71.09,34.27],[71.09,34.2],[71.09,34.12],[71.05,34.05],[70.85,33.98],[70.65,33.95],[70.42,33.95],[70.33,33.96],[70.25,33.98],[69.99,34.05],[69.89,34.01],[69.87,33.9],[70.06,33.72],[70.13,33.62],[70.22,33.45],[70.28,33.37],[70.26,33.29],[70.09,33.2],[69.92,33.11],[69.7,33.09],[69.57,33.06],[69.5,33.02],[69.45,32.83],[69.4,32.76],[69.41,32.68],[69.36,32.59],[69.29,32.53],[69.24,32.43],[69.26,32.25],[69.28,31.94],[69.19,31.84],[69.08,31.74],[68.97,31.67],[68.87,31.63],[68.78,31.65],[68.71,31.71],[68.67,31.76],[68.6,31.8],[68.52,31.79],[68.44,31.75],[68.32,31.77],[68.21,31.81],[68.16,31.8],[68.13,31.76],[68.02,31.68],[67.74,31.55],[67.63,31.54],[67.58,31.51],[67.6,31.45],[67.65,31.41],[67.73,31.38],[67.74,31.34],[67.66,31.31],[67.6,31.28],[67.45,31.23],[67.29,31.22],[67.12,31.24],[67.03,31.3],[66.92,31.31],[66.83,31.26],[66.73,31.19],[66.62,31.05],[66.6,31.02],[66.57,31.0],[66.5,30.96],[66.4,30.91],[66.35,30.8],[66.29,30.61],[66.3,30.5],[66.31,30.32],[66.28,30.19],[66.24,30.11],[66.25,30.04],[66.31,29.97],[66.29,29.92],[66.23,29.87],[66.18,29.84],[65.96,29.78],[65.67,29.7],[65.47,29.65],[65.18,29.58],[65.1,29.56],[64.92,29.55],[64.83,29.56],[64.7,29.57],[64.52,29.56],[64.39,29.54],[64.27,29.51],[64.17,29.46],[64.12,29.41],[64.1,29.39],[63.97,29.43],[63.57,29.5],[62.48,29.41],[62.37,29.43],[62.0,29.53],[61.52,29.67],[61.22,29.75],[60.84,29.86],[61.1,30.13],[61.33,30.36],[61.56,30.6],[61.78,30.83],[61.81,30.91],[61.81,31.07],[61.76,31.29],[61.66,31.38],[61.35,31.42],[61.11,31.45],[60.85,31.48],[60.82,31.5],[60.79,31.66],[60.8,31.73],[60.79,31.88],[60.79,31.99],[60.83,32.17],[60.83,32.25],[60.71,32.6],[60.64,32.79],[60.58,32.99],[60.56,33.06],[60.56,33.14],[60.72,33.32],[60.77,33.36],[60.86,33.46],[60.92,33.51],[60.91,33.54],[60.81,33.56],[60.65,33.56],[60.57,33.59],[60.51,33.64],[60.49,33.71],[60.53,33.84],[60.49,34.09],[60.57,34.22],[60.64,34.31],[60.89,34.32],[60.8,34.42],[60.76,34.48],[60.74,34.49],[60.73,34.52],[60.74,34.54],[60.8,34.55],[60.85,34.59],[60.91,34.63],[60.95,34.65],[60.96,34.71],[60.99,34.75],[61.04,34.8],[61.08,34.86],[61.07,34.92],[61.11,35.0],[61.12,35.05],[61.15,35.09],[61.13,35.16],[61.11,35.21],[61.1,35.27],[61.14,35.29],[61.19,35.31],[61.2,35.36],[61.23,35.42],[61.25,35.47],[61.28,35.51],[61.28,35.55],[61.26,35.62],[61.34,35.63],[61.38,35.59],[61.42,35.55],[61.54,35.46],[61.62,35.43],[61.72,35.42],[61.84,35.43],[61.94,35.45],[61.98,35.44],[62.09,35.38],[62.21,35.29],[62.25,35.25],[62.27,35.19],[62.31,35.17],[62.39,35.23],[62.46,35.25],[62.53,35.24],[62.61,35.23],[62.69,35.26],[62.72,35.27],[62.86,35.35],[62.98,35.41],[63.06,35.45],[63.08,35.57],[63.12,35.64],[63.17,35.68],[63.15,35.73],[63.13,35.77],[63.11,35.82],[63.13,35.85],[63.18,35.86],[63.3,35.86],[63.52,35.91],[63.7,35.97],[63.86,36.01],[63.94,36.02],[64.01,36.01],[64.04,36.03],[64.05,36.07],[64.09,36.11],[64.18,36.15],[64.36,36.23],[64.51,36.34],[64.57,36.43],[64.6,36.55],[64.67,36.75],[64.75,36.96],[64.78,37.06],[64.82,37.13],[64.95,37.19],[65.09,37.24],[65.3,37.25],[65.55,37.25],[65.61,37.37],[65.64,37.47],[65.68,37.52],[65.74,37.56],[65.77,37.57],[65.9,37.51],[66.11,37.41],[66.35,37.37],[66.47,37.34],[66.52,37.35]]]]}}]}